{
"type": "FeatureCollection",
"name": "densidadPoblacional",
"crs": { "type": "name", "properties": { "name": "urn:ogc:def:crs:OGC:1.3:CRS84" } },
"features": [
{ "type": "Feature", "properties": { "fid": 462, "cod_indec": 580420206, "region": "Alto Neuquén", "departamen": "Chos Malal", "cod_depto": "042", "fraccion": "02", "radio": "06", "tipo": "Urbano", "fuente": "DPEyC-INDEC", "p02_tot": 751, "p02_mujer": 382, "p02_varon": 369, "area": 39.053, "dens_pobl": 19 }, "geometry": { "type": "MultiPolygon", "coordinates": [ [ [ [ -70.27623299360566, -37.357877244115912 ], [ -70.275894220292045, -37.35736734728976 ], [ -70.275666010269603, -37.35705447001267 ], [ -70.275478518001108, -37.356813230642466 ], [ -70.275145014454239, -37.356447429659838 ], [ -70.274955770978778, -37.356269276101749 ], [ -70.274775296535225, -37.356109047088083 ], [ -70.274554870043559, -37.355922219273928 ], [ -70.274343364947129, -37.355762323974837 ], [ -70.274137883697904, -37.355624887613743 ], [ -70.273901370962605, -37.355487785127373 ], [ -70.273676371856482, -37.355364072702947 ], [ -70.273303762991347, -37.355187890932775 ], [ -70.273261142107756, -37.355170330393022 ], [ -70.272904681372282, -37.355448962866028 ], [ -70.27271276275178, -37.355613202647966 ], [ -70.2725906108885, -37.355731643012945 ], [ -70.272396249939902, -37.355918432788179 ], [ -70.272219499128397, -37.356145576423266 ], [ -70.271951017676585, -37.356454793551151 ], [ -70.271799654724262, -37.356681663522245 ], [ -70.271767852954312, -37.356803636294437 ], [ -70.271770057117394, -37.356934253084198 ], [ -70.27181609907673, -37.357154495359794 ], [ -70.271851008607527, -37.357383867011542 ], [ -70.271861059718617, -37.357645039876623 ], [ -70.2718026419045, -37.357861900584176 ], [ -70.271816055033028, -37.357987891971455 ], [ -70.271850204882128, -37.358172223323685 ], [ -70.271893122644641, -37.358374479741258 ], [ -70.271879692072233, -37.358581846967375 ], [ -70.271819364593568, -37.358852786309356 ], [ -70.271803720632846, -37.359096216058305 ], [ -70.271805156174267, -37.359348471817732 ], [ -70.271772593283728, -37.359425404305732 ], [ -70.271728213197122, -37.359470929955798 ], [ -70.271669422702999, -37.3594985911663 ], [ -70.271596297828623, -37.359512891941051 ], [ -70.27151722640204, -37.359509237232231 ], [ -70.271384170993727, -37.359483638597005 ], [ -70.271369532749389, -37.359452262057559 ], [ -70.271149332421871, -37.359278940102371 ], [ -70.270920517432756, -37.359096700611559 ], [ -70.270669578021312, -37.359108406638121 ], [ -70.270692809194387, -37.359482059032416 ], [ -70.270709334787199, -37.359792715644936 ], [ -70.271022344536675, -37.359780342465591 ], [ -70.27138265033075, -37.360731496274937 ], [ -70.2708983722939, -37.360795264276767 ], [ -70.270735115846804, -37.360819542733282 ], [ -70.270179076707052, -37.360978680511352 ], [ -70.269995994433145, -37.36099866603594 ], [ -70.269711420296758, -37.361024245781557 ], [ -70.269271673057233, -37.361051490308967 ], [ -70.269406406344288, -37.362014080472264 ], [ -70.269579049266625, -37.362881661684824 ], [ -70.26966024927529, -37.363011430359848 ], [ -70.270015176718942, -37.363476122837589 ], [ -70.270102780226679, -37.363650870822909 ], [ -70.270254873623557, -37.364135760038046 ], [ -70.270175265865447, -37.364100576352165 ], [ -70.269694014234972, -37.364177821577449 ], [ -70.269592623461762, -37.366701620096222 ], [ -70.269708989644059, -37.366740914325206 ], [ -70.269863566873511, -37.366703215888904 ], [ -70.270059783591066, -37.366624526526309 ], [ -70.270222053836434, -37.366708375633905 ], [ -70.269925539958649, -37.367031403596087 ], [ -70.269881685834363, -37.367108456758288 ], [ -70.27033875421256, -37.36743690582837 ], [ -70.270812907974488, -37.367774179158438 ], [ -70.271152855361393, -37.368018291615115 ], [ -70.271083987653967, -37.36811813825561 ], [ -70.270700143918702, -37.368617795348911 ], [ -70.27026374754179, -37.369181083409288 ], [ -70.270955776509652, -37.369718733076319 ], [ -70.271373286364849, -37.370043098160423 ], [ -70.27148485159077, -37.370131995373193 ], [ -70.271690672627031, -37.370287451440269 ], [ -70.272354200738064, -37.370807379817478 ], [ -70.272683193861965, -37.368731615628214 ], [ -70.272775031267287, -37.36815400828133 ], [ -70.272785720831891, -37.367784496681573 ], [ -70.273300160690283, -37.36783301683051 ], [ -70.273268595431929, -37.367635143910022 ], [ -70.273194935311409, -37.367451238688133 ], [ -70.273193869634071, -37.367388182454576 ], [ -70.273150632853614, -37.367334589903599 ], [ -70.273081241019, -37.367236230538111 ], [ -70.273071939129281, -37.367186777473478 ], [ -70.273110679700821, -37.36714131205823 ], [ -70.273103362105076, -37.367042284432188 ], [ -70.273104585270843, -37.366947669696835 ], [ -70.27308071903704, -37.366871344399328 ], [ -70.273029322464936, -37.366835858984111 ], [ -70.273033215045629, -37.366732205836769 ], [ -70.273085682519778, -37.366664068477526 ], [ -70.273109325713037, -37.366560202706239 ], [ -70.273144254939169, -37.366456215428634 ], [ -70.273187953097477, -37.366370153081945 ], [ -70.273189176170604, -37.366275538337419 ], [ -70.273165614543345, -37.366217229116778 ], [ -70.273164548938055, -37.366154172869287 ], [ -70.273158606750698, -37.365969538515891 ], [ -70.273182477997338, -37.365879184777661 ], [ -70.273201162887347, -37.365815915894458 ], [ -70.273217406833425, -37.365775197474449 ], [ -70.273184391376702, -37.365658427145711 ], [ -70.273198275736547, -37.365478084166156 ], [ -70.273217574656513, -37.365284168373464 ], [ -70.273185168341655, -37.36520343017856 ], [ -70.273155659683255, -37.365127165616201 ], [ -70.273189212914957, -37.36510878504059 ], [ -70.27321979242808, -37.365081426795143 ], [ -70.273213850266487, -37.364896792412722 ], [ -70.273200438527809, -37.364604122324387 ], [ -70.273203113051025, -37.364428404836907 ], [ -70.273223020670528, -37.364270521167384 ], [ -70.273266032506328, -37.364143922614304 ], [ -70.27333413765875, -37.363832355482508 ], [ -70.273313251032434, -37.363598328746356 ], [ -70.273187205991107, -37.363487064797781 ], [ -70.27310676605957, -37.363235659765046 ], [ -70.27307527968604, -37.363042290617649 ], [ -70.272945044886399, -37.362849984379331 ], [ -70.272711649898639, -37.362397507476864 ], [ -70.272449048318435, -37.362053460475323 ], [ -70.272377456833482, -37.361824483857511 ], [ -70.272307090080758, -37.361500892350442 ], [ -70.27236955448933, -37.36118938631234 ], [ -70.272557152080751, -37.360768417663479 ], [ -70.272665744621889, -37.360514978035226 ], [ -70.272727363429468, -37.360320606757796 ], [ -70.272742921876613, -37.360239352176642 ], [ -70.272773043181417, -37.360184969920624 ], [ -70.272726609332722, -37.360108887315533 ], [ -70.272633285527434, -37.359929697902352 ], [ -70.272596311574716, -37.359745397237802 ], [ -70.272598296154115, -37.359695822620424 ], [ -70.272611413681204, -37.359637118523942 ], [ -70.272624759381841, -37.35959192649679 ], [ -70.272626820005641, -37.359546855901797 ], [ -70.272589078688085, -37.359484194220983 ], [ -70.272556067240572, -37.359367423526244 ], [ -70.272543876592806, -37.359146817416907 ], [ -70.272556461668103, -37.359056585152921 ], [ -70.272571563722764, -37.358948306433284 ], [ -70.272595585818166, -37.358866960785413 ], [ -70.272625934897079, -37.358826090635525 ], [ -70.272662230674342, -37.358803175857886 ], [ -70.27271835115323, -37.358784552575635 ], [ -70.272745954966737, -37.358748216780214 ], [ -70.272759452583983, -37.358712032783835 ], [ -70.272843024554703, -37.35864806559168 ], [ -70.272904406942061, -37.358606861378121 ], [ -70.27294878581138, -37.358561335302745 ], [ -70.272968382244457, -37.358552114696373 ], [ -70.273007879433024, -37.358551689569317 ], [ -70.273052714728308, -37.358533187598823 ], [ -70.273057900659111, -37.358506102720888 ], [ -70.273229082267179, -37.35845020187535 ], [ -70.273298927945746, -37.358408906346625 ], [ -70.273388826516381, -37.358385414242932 ], [ -70.273549255530497, -37.358361162606073 ], [ -70.273709684435232, -37.358336910753387 ], [ -70.273763668238232, -37.358358853571964 ], [ -70.27381963583754, -37.358331221731738 ], [ -70.273883838639975, -37.358289986636386 ], [ -70.274136605885786, -37.358219691167307 ], [ -70.274896961996475, -37.358130410128524 ], [ -70.275104969432235, -37.358083119292189 ], [ -70.275272565096557, -37.357982205743575 ], [ -70.275491399292775, -37.357907768436426 ], [ -70.275787244120593, -37.357882053293281 ], [ -70.27623299360566, -37.357877244115912 ] ] ] ] } },
{ "type": "Feature", "properties": { "fid": 478, "cod_indec": 580420215, "region": "Alto Neuquén", "departamen": "Chos Malal", "cod_depto": "042", "fraccion": "02", "radio": "15", "tipo": "Urbano", "fuente": "DPEyC-INDEC", "p02_tot": 597, "p02_mujer": 311, "p02_varon": 286, "area": 14.676, "dens_pobl": 41 }, "geometry": { "type": "MultiPolygon", "coordinates": [ [ [ [ -70.266442107342158, -37.376371245644236 ], [ -70.265528935814743, -37.377119814706688 ], [ -70.264635197317034, -37.377850149603006 ], [ -70.264654095659679, -37.377967073133945 ], [ -70.264908382343592, -37.37848691381275 ], [ -70.265067125249942, -37.378863621480335 ], [ -70.265166153527304, -37.379213938837417 ], [ -70.26521980337148, -37.379551227144312 ], [ -70.265220538144192, -37.379762946339405 ], [ -70.265218926943319, -37.379835040873502 ], [ -70.26501475140509, -37.380954423335396 ], [ -70.265019540854567, -37.381071497679223 ], [ -70.26505957966846, -37.381102603133641 ], [ -70.265508626480923, -37.381453679615291 ], [ -70.265574291661096, -37.381498025109238 ], [ -70.265614255225415, -37.381524626346057 ], [ -70.26602044539078, -37.381844625723183 ], [ -70.266515336879777, -37.382235750861859 ], [ -70.267423142212905, -37.38150074639794 ], [ -70.268342066352972, -37.380756606088838 ], [ -70.267838633554476, -37.380361075256054 ], [ -70.267401022563021, -37.380018894685058 ], [ -70.268303224790515, -37.379288448357023 ], [ -70.269224859733924, -37.378539767288693 ], [ -70.268312434654135, -37.377824279700341 ], [ -70.268163720974101, -37.377708749084768 ], [ -70.267380121808486, -37.377099988345229 ], [ -70.266442107342158, -37.376371245644236 ] ] ] ] } },
{ "type": "Feature", "properties": { "fid": 503, "cod_indec": 580420205, "region": "Alto Neuquén", "departamen": "Chos Malal", "cod_depto": "042", "fraccion": "02", "radio": "05", "tipo": "Urbano", "fuente": "DPEyC-INDEC", "p02_tot": 751, "p02_mujer": 398, "p02_varon": 353, "area": 19.018, "dens_pobl": 39 }, "geometry": { "type": "MultiPolygon", "coordinates": [ [ [ [ -70.270536587692732, -37.35490231017706 ], [ -70.2696878935093, -37.354938453201576 ], [ -70.268836453062349, -37.354979124448583 ], [ -70.267990653721327, -37.355019729092888 ], [ -70.268031158044664, -37.355582400769308 ], [ -70.268083157865604, -37.356325142992496 ], [ -70.268134779978226, -37.357045364915479 ], [ -70.268186782246772, -37.357788106875965 ], [ -70.269035585363326, -37.357756478066506 ], [ -70.269138700002642, -37.35918791218073 ], [ -70.269186755067381, -37.359863123061494 ], [ -70.269264437192078, -37.360956966269875 ], [ -70.269271673057233, -37.361051490308967 ], [ -70.269711420296758, -37.361024245781557 ], [ -70.269995994433145, -37.36099866603594 ], [ -70.270179076707052, -37.360978680511352 ], [ -70.270735115846804, -37.360819542733282 ], [ -70.2708983722939, -37.360795264276767 ], [ -70.27138265033075, -37.360731496274937 ], [ -70.271022344536675, -37.359780342465591 ], [ -70.270709334787199, -37.359792715644936 ], [ -70.270692809194387, -37.359482059032416 ], [ -70.270669578021312, -37.359108406638121 ], [ -70.270920517432756, -37.359096700611559 ], [ -70.271149332421871, -37.359278940102371 ], [ -70.271369532749389, -37.359452262057559 ], [ -70.271384170993727, -37.359483638597005 ], [ -70.27151722640204, -37.359509237232231 ], [ -70.271596297828623, -37.359512891941051 ], [ -70.271669422702999, -37.3594985911663 ], [ -70.271728213197122, -37.359470929955798 ], [ -70.271772593283728, -37.359425404305732 ], [ -70.271805156174267, -37.359348471817732 ], [ -70.271803720632846, -37.359096216058305 ], [ -70.271819364593568, -37.358852786309356 ], [ -70.271879692072233, -37.358581846967375 ], [ -70.271893122644641, -37.358374479741258 ], [ -70.271850204882128, -37.358172223323685 ], [ -70.271816055033028, -37.357987891971455 ], [ -70.2718026419045, -37.357861900584176 ], [ -70.271861059718617, -37.357645039876623 ], [ -70.271851008607527, -37.357383867011542 ], [ -70.27181609907673, -37.357154495359794 ], [ -70.271770057117394, -37.356934253084198 ], [ -70.271767852954312, -37.356803636294437 ], [ -70.271799654724262, -37.356681663522245 ], [ -70.271951017676585, -37.356454793551151 ], [ -70.272219499128397, -37.356145576423266 ], [ -70.272396249939902, -37.355918432788179 ], [ -70.2725906108885, -37.355731643012945 ], [ -70.27271276275178, -37.355613202647966 ], [ -70.272904681372282, -37.355448962866028 ], [ -70.273261142107756, -37.355170330393022 ], [ -70.273079450454006, -37.355104713567037 ], [ -70.272707832963533, -37.354987082210506 ], [ -70.272302363516573, -37.354869813835151 ], [ -70.27195674620576, -37.35478793916797 ], [ -70.271651156762019, -37.354737167042387 ], [ -70.271159224170432, -37.354679387321987 ], [ -70.27056329183101, -37.354645247051941 ], [ -70.270540331712525, -37.354789648793336 ], [ -70.270536587692732, -37.35490231017706 ] ] ] ] } },
{ "type": "Feature", "properties": { "fid": 561, "cod_indec": 580420211, "region": "Alto Neuquén", "departamen": "Chos Malal", "cod_depto": "042", "fraccion": "02", "radio": "11", "tipo": "Urbano", "fuente": "DPEyC-INDEC", "p02_tot": 623, "p02_mujer": 322, "p02_varon": 301, "area": 20.67, "dens_pobl": 30 }, "geometry": { "type": "MultiPolygon", "coordinates": [ [ [ [ -70.269096259401564, -37.371243318640595 ], [ -70.268867487950899, -37.371065580138577 ], [ -70.268827528926636, -37.371038979874186 ], [ -70.268628690376616, -37.371297888783559 ], [ -70.268587957687899, -37.371392927297606 ], [ -70.268348036194453, -37.371390995990133 ], [ -70.266687085067559, -37.372980986575541 ], [ -70.266426003390507, -37.373231548835768 ], [ -70.266381536392657, -37.373272568560751 ], [ -70.265543855232522, -37.372632840045966 ], [ -70.265463083507001, -37.372696772135427 ], [ -70.266409734492925, -37.373438945477751 ], [ -70.267336424031569, -37.374167810437108 ], [ -70.26825733612236, -37.374887720204732 ], [ -70.269201144391886, -37.375625396159677 ], [ -70.270122092118555, -37.376345290571138 ], [ -70.271043057446136, -37.377065177397888 ], [ -70.271953502519352, -37.376325605143251 ], [ -70.272866751581475, -37.375585995743322 ], [ -70.273763204036101, -37.374855569928044 ], [ -70.272822412161204, -37.374131412608342 ], [ -70.271895823349553, -37.373411599644434 ], [ -70.270957889201725, -37.372687396299739 ], [ -70.270574682934594, -37.372389690420604 ], [ -70.270037055365108, -37.371972011302915 ], [ -70.269096259401564, -37.371243318640595 ] ] ] ] } },
{ "type": "Feature", "properties": { "fid": 564, "cod_indec": 580420216, "region": "Alto Neuquén", "departamen": "Chos Malal", "cod_depto": "042", "fraccion": "02", "radio": "16", "tipo": "Urbano", "fuente": "DPEyC-INDEC", "p02_tot": 616, "p02_mujer": 320, "p02_varon": 296, "area": 13.487, "dens_pobl": 46 }, "geometry": { "type": "MultiPolygon", "coordinates": [ [ [ [ -70.264753038860817, -37.381673490895103 ], [ -70.264668375777262, -37.381674396433944 ], [ -70.264120336928926, -37.38231994250993 ], [ -70.263224306560559, -37.383086329842797 ], [ -70.262705023094796, -37.383596417296303 ], [ -70.262850842760386, -37.383707480725306 ], [ -70.26289894406591, -37.383882655314416 ], [ -70.26311058172918, -37.384047073356491 ], [ -70.261886811888118, -37.384965610567058 ], [ -70.261594100567706, -37.385184965867261 ], [ -70.261323739131541, -37.385390567546388 ], [ -70.262945032263787, -37.386630108120066 ], [ -70.263117293754576, -37.386466094238088 ], [ -70.263183970545555, -37.386402314346668 ], [ -70.263473632708028, -37.386169473252615 ], [ -70.264593130402048, -37.385261044695397 ], [ -70.264652019095934, -37.385237890720809 ], [ -70.26475225765617, -37.385155731671823 ], [ -70.265626551382141, -37.384439118708798 ], [ -70.266531417829398, -37.383695142885969 ], [ -70.267436418040077, -37.38296016840517 ], [ -70.266515336879777, -37.382235750861859 ], [ -70.26602044539078, -37.381844625723183 ], [ -70.265614255225415, -37.381524626346057 ], [ -70.265574291661096, -37.381498025109238 ], [ -70.265508626480923, -37.381453679615291 ], [ -70.26505957966846, -37.381102603133641 ], [ -70.265019540854567, -37.381071497679223 ], [ -70.265027682093447, -37.381220069971448 ], [ -70.264753038860817, -37.381673490895103 ] ] ] ] } },
{ "type": "Feature", "properties": { "fid": 589, "cod_indec": 580420214, "region": "Alto Neuquén", "departamen": "Chos Malal", "cod_depto": "042", "fraccion": "02", "radio": "14", "tipo": "Urbano", "fuente": "DPEyC-INDEC", "p02_tot": 829, "p02_mujer": 444, "p02_varon": 385, "area": 27.724, "dens_pobl": 30 }, "geometry": { "type": "MultiPolygon", "coordinates": [ [ [ [ -70.271043057446136, -37.377065177397888 ], [ -70.270122092118555, -37.376345290571138 ], [ -70.269222840210645, -37.377080223884853 ], [ -70.268312434654135, -37.377824279700341 ], [ -70.269224859733924, -37.378539767288693 ], [ -70.268303224790515, -37.379288448357023 ], [ -70.267401022563021, -37.380018894685058 ], [ -70.267838633554476, -37.380361075256054 ], [ -70.268342066352972, -37.380756606088838 ], [ -70.269247089911389, -37.380026122382368 ], [ -70.270165195078093, -37.380741541212117 ], [ -70.271094834133123, -37.381470343187345 ], [ -70.272012974452338, -37.382185746847092 ], [ -70.27214446584054, -37.382283438409935 ], [ -70.272381822180179, -37.382465582370223 ], [ -70.27301671022505, -37.382954279551541 ], [ -70.27380308595221, -37.383553961962718 ], [ -70.273891639895368, -37.383616075484383 ], [ -70.27476864933773, -37.382899366266138 ], [ -70.275676303754651, -37.38215979585226 ], [ -70.276586762427343, -37.3814201882427 ], [ -70.276157648860391, -37.381082453592519 ], [ -70.275742878348311, -37.38075807706533 ], [ -70.274896187073878, -37.380095989943342 ], [ -70.274864687188824, -37.380069300607268 ], [ -70.274747306449626, -37.379971459913904 ], [ -70.274669968054226, -37.379904721241033 ], [ -70.273826117807985, -37.379242595588885 ], [ -70.272899379179876, -37.378518288432737 ], [ -70.271986920272667, -37.377802829840398 ], [ -70.271043057446136, -37.377065177397888 ] ] ] ] } },
{ "type": "Feature", "properties": { "fid": 616, "cod_indec": 580420218, "region": "Alto Neuquén", "departamen": "Chos Malal", "cod_depto": "042", "fraccion": "02", "radio": "18", "tipo": "Urbano", "fuente": "DPEyC-INDEC", "p02_tot": 582, "p02_mujer": 291, "p02_varon": 291, "area": 17.17, "dens_pobl": 34 }, "geometry": { "type": "MultiPolygon", "coordinates": [ [ [ [ -70.269247089911389, -37.380026122382368 ], [ -70.268342066352972, -37.380756606088838 ], [ -70.267423142212905, -37.38150074639794 ], [ -70.266515336879777, -37.382235750861859 ], [ -70.267436418040077, -37.38296016840517 ], [ -70.268368881493728, -37.383688961278814 ], [ -70.269275735391417, -37.384404507007062 ], [ -70.270183538698561, -37.383669481625361 ], [ -70.270323496944542, -37.38376708423521 ], [ -70.270354920845094, -37.383789270756971 ], [ -70.270758321000216, -37.384109283459608 ], [ -70.27119886945475, -37.384455924316839 ], [ -70.271622260469712, -37.384789233530526 ], [ -70.27204557913312, -37.385118037135051 ], [ -70.272972813933848, -37.384364762211753 ], [ -70.273891639895368, -37.383616075484383 ], [ -70.27380308595221, -37.383553961962718 ], [ -70.27301671022505, -37.382954279551541 ], [ -70.272381822180179, -37.382465582370223 ], [ -70.27214446584054, -37.382283438409935 ], [ -70.272012974452338, -37.382185746847092 ], [ -70.271094834133123, -37.381470343187345 ], [ -70.270165195078093, -37.380741541212117 ], [ -70.269247089911389, -37.380026122382368 ] ] ] ] } },
{ "type": "Feature", "properties": { "fid": 631, "cod_indec": 580420212, "region": "Alto Neuquén", "departamen": "Chos Malal", "cod_depto": "042", "fraccion": "02", "radio": "12", "tipo": "Urbano", "fuente": "DPEyC-INDEC", "p02_tot": 584, "p02_mujer": 307, "p02_varon": 277, "area": 22.315, "dens_pobl": 26 }, "geometry": { "type": "MultiPolygon", "coordinates": [ [ [ [ -70.273300160690283, -37.36783301683051 ], [ -70.272785720831891, -37.367784496681573 ], [ -70.272775031267287, -37.36815400828133 ], [ -70.272683193861965, -37.368731615628214 ], [ -70.272354200738064, -37.370807379817478 ], [ -70.271690672627031, -37.370287451440269 ], [ -70.27148485159077, -37.370131995373193 ], [ -70.271373286364849, -37.370043098160423 ], [ -70.270955776509652, -37.369718733076319 ], [ -70.270020459943296, -37.370485594015435 ], [ -70.269096259401564, -37.371243318640595 ], [ -70.270037055365108, -37.371972011302915 ], [ -70.270574682934594, -37.372389690420604 ], [ -70.270957889201725, -37.372687396299739 ], [ -70.271895823349553, -37.373411599644434 ], [ -70.272822412161204, -37.374131412608342 ], [ -70.273763204036101, -37.374855569928044 ], [ -70.274681984899274, -37.374111382186292 ], [ -70.275623016721084, -37.373348928006365 ], [ -70.276472056714951, -37.372655031882033 ], [ -70.275547969062828, -37.371917201181205 ], [ -70.275027861508889, -37.370868679373807 ], [ -70.274824857779038, -37.370213162337933 ], [ -70.274487941055398, -37.369815863685659 ], [ -70.274039536876529, -37.369334173326251 ], [ -70.273793605438783, -37.368976435831094 ], [ -70.273536922960801, -37.368650347411517 ], [ -70.273300160690283, -37.36783301683051 ] ] ] ] } },
{ "type": "Feature", "properties": { "fid": 652, "cod_indec": 580420213, "region": "Alto Neuquén", "departamen": "Chos Malal", "cod_depto": "042", "fraccion": "02", "radio": "13", "tipo": "Urbano", "fuente": "DPEyC-INDEC", "p02_tot": 923, "p02_mujer": 507, "p02_varon": 416, "area": 34.307, "dens_pobl": 27 }, "geometry": { "type": "MultiPolygon", "coordinates": [ [ [ [ -70.276472056714951, -37.372655031882033 ], [ -70.275623016721084, -37.373348928006365 ], [ -70.274681984899274, -37.374111382186292 ], [ -70.273763204036101, -37.374855569928044 ], [ -70.272866751581475, -37.375585995743322 ], [ -70.271953502519352, -37.376325605143251 ], [ -70.271043057446136, -37.377065177397888 ], [ -70.271986920272667, -37.377802829840398 ], [ -70.272899379179876, -37.378518288432737 ], [ -70.273826117807985, -37.379242595588885 ], [ -70.274669968054226, -37.379904721241033 ], [ -70.274747306449626, -37.379971459913904 ], [ -70.274864687188824, -37.380069300607268 ], [ -70.274896187073878, -37.380095989943342 ], [ -70.275742878348311, -37.38075807706533 ], [ -70.276157648860391, -37.381082453592519 ], [ -70.276586762427343, -37.3814201882427 ], [ -70.277491559115646, -37.380680634841447 ], [ -70.27667055741756, -37.380036302290314 ], [ -70.276723794126994, -37.38001320336484 ], [ -70.276790606349635, -37.379958424052504 ], [ -70.277283458087453, -37.379561181498865 ], [ -70.277609201024504, -37.379296382518369 ], [ -70.278160464846351, -37.378848952115732 ], [ -70.278527995912242, -37.378552165134906 ], [ -70.277609840478192, -37.377836811966837 ], [ -70.276554494371155, -37.377019321538022 ], [ -70.277450544904241, -37.376266348269951 ], [ -70.27830493771198, -37.375554362042784 ], [ -70.278340551575624, -37.375490909454292 ], [ -70.278387758605064, -37.375445350835172 ], [ -70.278545920920266, -37.375119293241276 ], [ -70.278622944393192, -37.375001334893788 ], [ -70.278711790252629, -37.37491478245181 ], [ -70.278700349976589, -37.374905896504899 ], [ -70.278680214797475, -37.374883590092949 ], [ -70.278671290491559, -37.374856657624164 ], [ -70.278673653516464, -37.374829603102697 ], [ -70.278687380328563, -37.374806930529445 ], [ -70.278709572620443, -37.374784166413228 ], [ -70.278737561498716, -37.374770349266704 ], [ -70.278771346969876, -37.374765479085752 ], [ -70.278805208911891, -37.374765112896384 ], [ -70.278827936493286, -37.374773876767158 ], [ -70.278850740558127, -37.374787144634574 ], [ -70.278862180833059, -37.374796030567111 ], [ -70.27887285631455, -37.374759876487516 ], [ -70.278877352774927, -37.374692255434873 ], [ -70.27887361319722, -37.374638237938498 ], [ -70.27886163759625, -37.374597823997711 ], [ -70.278832654608209, -37.374553089155221 ], [ -70.278795206198581, -37.374508445852285 ], [ -70.278674778129897, -37.374397127412713 ], [ -70.278080191374855, -37.373786393711782 ], [ -70.277502621336779, -37.373179977881684 ], [ -70.277301431099943, -37.372965919349646 ], [ -70.276895774202657, -37.372510807603405 ], [ -70.276356050846331, -37.37197154969725 ], [ -70.27579574416184, -37.37138295813223 ], [ -70.27556154226194, -37.371218805799487 ], [ -70.275027861508889, -37.370868679373807 ], [ -70.275547969062828, -37.371917201181205 ], [ -70.276472056714951, -37.372655031882033 ] ] ] ] } },
{ "type": "Feature", "properties": { "fid": 665, "cod_indec": 580420209, "region": "Alto Neuquén", "departamen": "Chos Malal", "cod_depto": "042", "fraccion": "02", "radio": "09", "tipo": "Urbano", "fuente": "DPEyC-INDEC", "p02_tot": 508, "p02_mujer": 265, "p02_varon": 243, "area": 9.294, "dens_pobl": 55 }, "geometry": { "type": "MultiPolygon", "coordinates": [ [ [ [ -70.2645556647403, -37.373449777127121 ], [ -70.264100951918181, -37.373094251902224 ], [ -70.263683455347064, -37.372769861037014 ], [ -70.263623518109355, -37.372729957992838 ], [ -70.262721723747305, -37.373482888944793 ], [ -70.261825404108421, -37.374226744972177 ], [ -70.260929066777962, -37.374970594438111 ], [ -70.261855497390968, -37.375685990706835 ], [ -70.26231021586392, -37.376041524322325 ], [ -70.262782021115584, -37.376405883336467 ], [ -70.263678583133171, -37.375675532103124 ], [ -70.264586188293421, -37.374931541517114 ], [ -70.26549934349535, -37.374182979781089 ], [ -70.266003279347629, -37.373772150602001 ], [ -70.266409734492925, -37.373438945477751 ], [ -70.265463083507001, -37.372696772135427 ], [ -70.265045567819726, -37.373043606876848 ], [ -70.2645556647403, -37.373449777127121 ] ] ] ] } },
{ "type": "Feature", "properties": { "fid": 712, "cod_indec": 580420204, "region": "Alto Neuquén", "departamen": "Chos Malal", "cod_depto": "042", "fraccion": "02", "radio": "04", "tipo": "Urbano", "fuente": "DPEyC-INDEC", "p02_tot": 1471, "p02_mujer": 776, "p02_varon": 695, "area": 64.255, "dens_pobl": 23 }, "geometry": { "type": "MultiPolygon", "coordinates": [ [ [ [ -70.266492780791808, -37.35336447913491 ], [ -70.266253392033647, -37.353222887081522 ], [ -70.26609420352483, -37.353152513645583 ], [ -70.265946753316399, -37.353109043453188 ], [ -70.265577553361794, -37.353302198263087 ], [ -70.264951309594778, -37.353646761341807 ], [ -70.264190857572373, -37.354064833305657 ], [ -70.263749659690987, -37.354339839287917 ], [ -70.263501830246696, -37.354536195619168 ], [ -70.26331850723065, -37.354709338189402 ], [ -70.26317727343239, -37.354868516416488 ], [ -70.263028179548783, -37.355063817211665 ], [ -70.26288235883861, -37.355286111967537 ], [ -70.262224299599794, -37.35642835879483 ], [ -70.262016226872404, -37.356808986544209 ], [ -70.262987314499242, -37.356834659354469 ], [ -70.263088499341137, -37.356811054544032 ], [ -70.263264798810567, -37.356723579487955 ], [ -70.263493491861553, -37.356563466886243 ], [ -70.263393989122278, -37.357024024371363 ], [ -70.263383884993118, -37.3572628892598 ], [ -70.263378290630925, -37.357434133245462 ], [ -70.263367506882673, -37.357632461746682 ], [ -70.263406296759513, -37.35775818312456 ], [ -70.263323478836682, -37.359214133449449 ], [ -70.263718757754361, -37.359227929884788 ], [ -70.263690309714519, -37.360223804859857 ], [ -70.263726978682058, -37.361232498425004 ], [ -70.263848618626355, -37.362091623928137 ], [ -70.263949704538945, -37.363239278829717 ], [ -70.264130652802379, -37.363259869023572 ], [ -70.264457410664292, -37.364233926758168 ], [ -70.264807959001473, -37.365279806402178 ], [ -70.267903946245738, -37.36546288671645 ], [ -70.269393901640598, -37.366631675907421 ], [ -70.269592623461762, -37.366701620096222 ], [ -70.269694014234972, -37.364177821577449 ], [ -70.270175265865447, -37.364100576352165 ], [ -70.270254873623557, -37.364135760038046 ], [ -70.270102780226679, -37.363650870822909 ], [ -70.270015176718942, -37.363476122837589 ], [ -70.26966024927529, -37.363011430359848 ], [ -70.269579049266625, -37.362881661684824 ], [ -70.269406406344288, -37.362014080472264 ], [ -70.269271673057233, -37.361051490308967 ], [ -70.269264437192078, -37.360956966269875 ], [ -70.269186755067381, -37.359863123061494 ], [ -70.269138700002642, -37.35918791218073 ], [ -70.269035585363326, -37.357756478066506 ], [ -70.268186782246772, -37.357788106875965 ], [ -70.268134779978226, -37.357045364915479 ], [ -70.268083157865604, -37.356325142992496 ], [ -70.268031158044664, -37.355582400769308 ], [ -70.267990653721327, -37.355019729092888 ], [ -70.268836453062349, -37.354979124448583 ], [ -70.2696878935093, -37.354938453201576 ], [ -70.270536587692732, -37.35490231017706 ], [ -70.270540331712525, -37.354789648793336 ], [ -70.27056329183101, -37.354645247051941 ], [ -70.270275085759522, -37.35462131369416 ], [ -70.270017987658818, -37.354601550447327 ], [ -70.26965887545748, -37.354555852714057 ], [ -70.269259661739568, -37.354474545464463 ], [ -70.268789239542713, -37.354353457142963 ], [ -70.268650097104057, -37.354300891543119 ], [ -70.268536496110542, -37.354257061534213 ], [ -70.266492780791808, -37.35336447913491 ] ] ] ] } },
{ "type": "Feature", "properties": { "fid": 720, "cod_indec": 580420217, "region": "Alto Neuquén", "departamen": "Chos Malal", "cod_depto": "042", "fraccion": "02", "radio": "17", "tipo": "Urbano", "fuente": "DPEyC-INDEC", "p02_tot": 832, "p02_mujer": 449, "p02_varon": 383, "area": 18.779, "dens_pobl": 44 }, "geometry": { "type": "MultiPolygon", "coordinates": [ [ [ [ -70.267436418040077, -37.38296016840517 ], [ -70.266531417829398, -37.383695142885969 ], [ -70.265626551382141, -37.384439118708798 ], [ -70.26475225765617, -37.385155731671823 ], [ -70.264652019095934, -37.385237890720809 ], [ -70.265587155910595, -37.385957667018168 ], [ -70.266559530773719, -37.386708570586272 ], [ -70.267809254797228, -37.387668219069226 ], [ -70.268381232432745, -37.388108062125582 ], [ -70.268500923336845, -37.388007671967081 ], [ -70.269372466549257, -37.387295565974384 ], [ -70.270238500709851, -37.3865925224314 ], [ -70.271132284953481, -37.385862145319727 ], [ -70.27204557913312, -37.385118037135051 ], [ -70.271622260469712, -37.384789233530526 ], [ -70.27119886945475, -37.384455924316839 ], [ -70.270758321000216, -37.384109283459608 ], [ -70.270354920845094, -37.383789270756971 ], [ -70.270323496944542, -37.38376708423521 ], [ -70.270183538698561, -37.383669481625361 ], [ -70.269275735391417, -37.384404507007062 ], [ -70.268368881493728, -37.383688961278814 ], [ -70.267436418040077, -37.38296016840517 ] ] ] ] } },
{ "type": "Feature", "properties": { "fid": 743, "cod_indec": 580420207, "region": "Alto Neuquén", "departamen": "Chos Malal", "cod_depto": "042", "fraccion": "02", "radio": "07", "tipo": "Urbano", "fuente": "DPEyC-INDEC", "p02_tot": 1107, "p02_mujer": 571, "p02_varon": 536, "area": 45.913, "dens_pobl": 24 }, "geometry": { "type": "MultiPolygon", "coordinates": [ [ [ [ -70.2634177954492, -37.365344219247241 ], [ -70.263297329177192, -37.365228380252326 ], [ -70.262520740455187, -37.365196129780657 ], [ -70.261783728508576, -37.365167956792085 ], [ -70.261049538468569, -37.365139749113574 ], [ -70.260724765914532, -37.365125192395276 ], [ -70.260715816365874, -37.365264937951878 ], [ -70.260477032653029, -37.369209220160947 ], [ -70.26080144589136, -37.369201257043002 ], [ -70.261931593929944, -37.368099031196273 ], [ -70.262590629651683, -37.368524461526242 ], [ -70.263280937280285, -37.368963068558806 ], [ -70.263366519340352, -37.368849533312627 ], [ -70.263446004662725, -37.36870903410226 ], [ -70.263534740234178, -37.367942263234795 ], [ -70.263753287093493, -37.368016510259359 ], [ -70.263711893305526, -37.368408873680352 ], [ -70.264064972024329, -37.368427624348897 ], [ -70.264528169185496, -37.36844970136459 ], [ -70.264985723350108, -37.368471836925117 ], [ -70.264952242204942, -37.368494719257434 ], [ -70.265460235249321, -37.370007414971568 ], [ -70.265170738451829, -37.37007808508092 ], [ -70.264737940849201, -37.370186325859116 ], [ -70.26536430327377, -37.371688745822539 ], [ -70.2654440683378, -37.371732940650816 ], [ -70.265934738538334, -37.372380890220612 ], [ -70.266687085067559, -37.372980986575541 ], [ -70.268348036194453, -37.371390995990133 ], [ -70.268587957687899, -37.371392927297606 ], [ -70.268628690376616, -37.371297888783559 ], [ -70.268827528926636, -37.371038979874186 ], [ -70.268867487950899, -37.371065580138577 ], [ -70.269096259401564, -37.371243318640595 ], [ -70.270020459943296, -37.370485594015435 ], [ -70.270955776509652, -37.369718733076319 ], [ -70.27026374754179, -37.369181083409288 ], [ -70.270700143918702, -37.368617795348911 ], [ -70.271083987653967, -37.36811813825561 ], [ -70.271152855361393, -37.368018291615115 ], [ -70.270812907974488, -37.367774179158438 ], [ -70.27033875421256, -37.36743690582837 ], [ -70.269881685834363, -37.367108456758288 ], [ -70.269925539958649, -37.367031403596087 ], [ -70.270222053836434, -37.366708375633905 ], [ -70.270059783591066, -37.366624526526309 ], [ -70.269863566873511, -37.366703215888904 ], [ -70.269708989644059, -37.366740914325206 ], [ -70.269592623461762, -37.366701620096222 ], [ -70.269393901640598, -37.366631675907421 ], [ -70.267903946245738, -37.36546288671645 ], [ -70.264807959001473, -37.365279806402178 ], [ -70.264418215591391, -37.365261449843437 ], [ -70.264339365086201, -37.365271302544308 ], [ -70.263934052946041, -37.365334197988773 ], [ -70.263573732921301, -37.365387601652422 ], [ -70.26344036738908, -37.365343978104228 ], [ -70.2634177954492, -37.365344219247241 ] ] ] ] } },
{ "type": "Feature", "properties": { "fid": 764, "cod_indec": 580420208, "region": "Alto Neuquén", "departamen": "Chos Malal", "cod_depto": "042", "fraccion": "02", "radio": "08", "tipo": "Urbano", "fuente": "DPEyC-INDEC", "p02_tot": 990, "p02_mujer": 500, "p02_varon": 490, "area": 25.168, "dens_pobl": 39 }, "geometry": { "type": "MultiPolygon", "coordinates": [ [ [ [ -70.263753287093493, -37.368016510259359 ], [ -70.263534740234178, -37.367942263234795 ], [ -70.263446004662725, -37.36870903410226 ], [ -70.263366519340352, -37.368849533312627 ], [ -70.263280937280285, -37.368963068558806 ], [ -70.262590629651683, -37.368524461526242 ], [ -70.261931593929944, -37.368099031196273 ], [ -70.26080144589136, -37.369201257043002 ], [ -70.260477032653029, -37.369209220160947 ], [ -70.260327286047229, -37.371729021694364 ], [ -70.260322622285287, -37.371787634306244 ], [ -70.260292739491405, -37.372869114046189 ], [ -70.260276839225028, -37.373436893090968 ], [ -70.260309404143996, -37.374202368402663 ], [ -70.260665611078238, -37.374743656740918 ], [ -70.260791732725323, -37.374859437856998 ], [ -70.260929066777962, -37.374970594438111 ], [ -70.261825404108421, -37.374226744972177 ], [ -70.262721723747305, -37.373482888944793 ], [ -70.263623518109355, -37.372729957992838 ], [ -70.263683455347064, -37.372769861037014 ], [ -70.264100951918181, -37.373094251902224 ], [ -70.2645556647403, -37.373449777127121 ], [ -70.265045567819726, -37.373043606876848 ], [ -70.265463083507001, -37.372696772135427 ], [ -70.265543855232522, -37.372632840045966 ], [ -70.266381536392657, -37.373272568560751 ], [ -70.266426003390507, -37.373231548835768 ], [ -70.266687085067559, -37.372980986575541 ], [ -70.265934738538334, -37.372380890220612 ], [ -70.2654440683378, -37.371732940650816 ], [ -70.26536430327377, -37.371688745822539 ], [ -70.264737940849201, -37.370186325859116 ], [ -70.265170738451829, -37.37007808508092 ], [ -70.265460235249321, -37.370007414971568 ], [ -70.264952242204942, -37.368494719257434 ], [ -70.264985723350108, -37.368471836925117 ], [ -70.264528169185496, -37.36844970136459 ], [ -70.264064972024329, -37.368427624348897 ], [ -70.263711893305526, -37.368408873680352 ], [ -70.263753287093493, -37.368016510259359 ] ] ] ] } },
{ "type": "Feature", "properties": { "fid": 768, "cod_indec": 580420203, "region": "Alto Neuquén", "departamen": "Chos Malal", "cod_depto": "042", "fraccion": "02", "radio": "03", "tipo": "Urbano", "fuente": "DPEyC-INDEC", "p02_tot": 1242, "p02_mujer": 639, "p02_varon": 603, "area": 23.039, "dens_pobl": 54 }, "geometry": { "type": "MultiPolygon", "coordinates": [ [ [ [ -70.263493491861553, -37.356563466886243 ], [ -70.263264798810567, -37.356723579487955 ], [ -70.263088499341137, -37.356811054544032 ], [ -70.262987314499242, -37.356834659354469 ], [ -70.262016226872404, -37.356808986544209 ], [ -70.261983353248212, -37.35686790035556 ], [ -70.261835534435605, -37.357139768464812 ], [ -70.261712426700555, -37.357370829131391 ], [ -70.261594734437523, -37.357588317354072 ], [ -70.261379624177977, -37.358054611151935 ], [ -70.261159590297936, -37.358732684909654 ], [ -70.261042583034538, -37.359328572477011 ], [ -70.260818192286848, -37.363119540674219 ], [ -70.260792936978021, -37.363971225575391 ], [ -70.260724765914532, -37.365125192395276 ], [ -70.261049538468569, -37.365139749113574 ], [ -70.261783728508576, -37.365167956792085 ], [ -70.262520740455187, -37.365196129780657 ], [ -70.263297329177192, -37.365228380252326 ], [ -70.2634177954492, -37.365344219247241 ], [ -70.26344036738908, -37.365343978104228 ], [ -70.263573732921301, -37.365387601652422 ], [ -70.263934052946041, -37.365334197988773 ], [ -70.264339365086201, -37.365271302544308 ], [ -70.264418215591391, -37.365261449843437 ], [ -70.264807959001473, -37.365279806402178 ], [ -70.264457410664292, -37.364233926758168 ], [ -70.264130652802379, -37.363259869023572 ], [ -70.263949704538945, -37.363239278829717 ], [ -70.263848618626355, -37.362091623928137 ], [ -70.263726978682058, -37.361232498425004 ], [ -70.263690309714519, -37.360223804859857 ], [ -70.263718757754361, -37.359227929884788 ], [ -70.263323478836682, -37.359214133449449 ], [ -70.263406296759513, -37.35775818312456 ], [ -70.263367506882673, -37.357632461746682 ], [ -70.263378290630925, -37.357434133245462 ], [ -70.263383884993118, -37.3572628892598 ], [ -70.263393989122278, -37.357024024371363 ], [ -70.263493491861553, -37.356563466886243 ] ] ] ] } },
{ "type": "Feature", "properties": { "fid": 815, "cod_indec": 580420219, "region": "Alto Neuquén", "departamen": "Chos Malal", "cod_depto": "042", "fraccion": "02", "radio": "19", "tipo": "Urbano", "fuente": "DPEyC-INDEC", "p02_tot": 734, "p02_mujer": 380, "p02_varon": 354, "area": 112.916, "dens_pobl": 7 }, "geometry": { "type": "MultiPolygon", "coordinates": [ [ [ [ -70.278866685208158, -37.37489508807284 ], [ -70.278880411972835, -37.374872415478279 ], [ -70.278885596754193, -37.374845330435946 ], [ -70.278876672380221, -37.374818397983823 ], [ -70.278862180833059, -37.374796030567111 ], [ -70.278850740558127, -37.374787144634574 ], [ -70.278827936493286, -37.374773876767158 ], [ -70.278805208911891, -37.374765112896384 ], [ -70.278771346969876, -37.374765479085752 ], [ -70.278737561498716, -37.374770349266704 ], [ -70.278709572620443, -37.374784166413228 ], [ -70.278687380328563, -37.374806930529445 ], [ -70.278673653516464, -37.374829603102697 ], [ -70.278671290491559, -37.374856657624164 ], [ -70.278680214797475, -37.374883590092949 ], [ -70.278700349976589, -37.374905896504899 ], [ -70.278711790252629, -37.37491478245181 ], [ -70.278622944393192, -37.375001334893788 ], [ -70.278545920920266, -37.375119293241276 ], [ -70.278387758605064, -37.375445350835172 ], [ -70.278340551575624, -37.375490909454292 ], [ -70.27830493771198, -37.375554362042784 ], [ -70.277450544904241, -37.376266348269951 ], [ -70.276554494371155, -37.377019321538022 ], [ -70.277609840478192, -37.377836811966837 ], [ -70.278527995912242, -37.378552165134906 ], [ -70.278160464846351, -37.378848952115732 ], [ -70.277609201024504, -37.379296382518369 ], [ -70.277283458087453, -37.379561181498865 ], [ -70.276790606349635, -37.379958424052504 ], [ -70.276723794126994, -37.38001320336484 ], [ -70.27667055741756, -37.380036302290314 ], [ -70.277491559115646, -37.380680634841447 ], [ -70.276586762427343, -37.3814201882427 ], [ -70.275676303754651, -37.38215979585226 ], [ -70.27476864933773, -37.382899366266138 ], [ -70.273891639895368, -37.383616075484383 ], [ -70.272972813933848, -37.384364762211753 ], [ -70.27204557913312, -37.385118037135051 ], [ -70.271132284953481, -37.385862145319727 ], [ -70.270238500709851, -37.3865925224314 ], [ -70.269372466549257, -37.387295565974384 ], [ -70.268500923336845, -37.388007671967081 ], [ -70.268381232432745, -37.388108062125582 ], [ -70.2715327595524, -37.390520329979438 ], [ -70.271163233521776, -37.390871174591105 ], [ -70.27022406984635, -37.391759708042457 ], [ -70.270149079099099, -37.391832590796788 ], [ -70.270023359556163, -37.391910523251582 ], [ -70.267987880202497, -37.392909916415711 ], [ -70.26643930319014, -37.393656295143217 ], [ -70.264613454413293, -37.394536259612515 ], [ -70.266669785135264, -37.396280135683654 ], [ -70.266792296246265, -37.396346395329005 ], [ -70.266883227635674, -37.396381459520022 ], [ -70.266982475411538, -37.396407424882014 ], [ -70.267118341912749, -37.396428492881157 ], [ -70.267245512992901, -37.396436139473991 ], [ -70.267448971595542, -37.396447472936018 ], [ -70.267982528942213, -37.396446256577306 ], [ -70.268108182208394, -37.396363822169306 ], [ -70.268642082665693, -37.395880583688395 ], [ -70.269089842422957, -37.395479354214956 ], [ -70.269223884735695, -37.395392323761612 ], [ -70.269633858518404, -37.395261786943692 ], [ -70.269754698671633, -37.395228955479119 ], [ -70.270089448527926, -37.395157787586186 ], [ -70.270438006598226, -37.395068451102773 ], [ -70.270620258832267, -37.394994415475864 ], [ -70.270751780081966, -37.394925429666593 ], [ -70.270868807856473, -37.394834075419652 ], [ -70.271471341652656, -37.394237466049162 ], [ -70.271843324287119, -37.393864070033239 ], [ -70.271968360023521, -37.393745599654132 ], [ -70.272026415560561, -37.393672897972074 ], [ -70.272174346966167, -37.393238843795153 ], [ -70.272262313225909, -37.392931569612536 ], [ -70.272299696638925, -37.392805032422714 ], [ -70.272443807354321, -37.392479134629234 ], [ -70.272525664835157, -37.392311575345659 ], [ -70.272627355520697, -37.392148307342737 ], [ -70.27278000274643, -37.391993500347233 ], [ -70.273008475286517, -37.39181535267447 ], [ -70.273388521773413, -37.391586019172586 ], [ -70.273891763025176, -37.391296794526397 ], [ -70.27435998725872, -37.390940372906869 ], [ -70.274666336876777, -37.390693810361803 ], [ -70.274954224198339, -37.390357349741066 ], [ -70.276458533187693, -37.388507657491502 ], [ -70.27655029579185, -37.38842558005009 ], [ -70.276617268196304, -37.388379808760419 ], [ -70.277781346594537, -37.387777102940653 ], [ -70.278443428092245, -37.387369017076132 ], [ -70.279483219191988, -37.386763133600162 ], [ -70.279686718903989, -37.3866122722632 ], [ -70.279830873651974, -37.386457548135589 ], [ -70.279941620149174, -37.386330214401895 ], [ -70.280022240421431, -37.386257264541165 ], [ -70.281465324025461, -37.385300126030053 ], [ -70.282209881882892, -37.384764990388661 ], [ -70.282363031517079, -37.384641699388382 ], [ -70.282468280143448, -37.384523432569509 ], [ -70.282559340787444, -37.384400814736594 ], [ -70.282658253822945, -37.38424207309518 ], [ -70.282819850936278, -37.383952011541624 ], [ -70.282865218514516, -37.383798355458048 ], [ -70.282866505811214, -37.383708245094546 ], [ -70.282853682329403, -37.383618287825165 ], [ -70.282573301562934, -37.382900558224073 ], [ -70.282007847984545, -37.381685883793573 ], [ -70.281566827098061, -37.380650050618542 ], [ -70.280497105954325, -37.378328140875325 ], [ -70.279717762497512, -37.376647268124572 ], [ -70.279358044350104, -37.37590786409465 ], [ -70.278866685208158, -37.37489508807284 ] ] ] ] } },
{ "type": "Feature", "properties": { "fid": 829, "cod_indec": 580420202, "region": "Alto Neuquén", "departamen": "Chos Malal", "cod_depto": "042", "fraccion": "02", "radio": "02", "tipo": "Urbano", "fuente": "DPEyC-INDEC", "p02_tot": 1089, "p02_mujer": 603, "p02_varon": 486, "area": 12.066, "dens_pobl": 90 }, "geometry": { "type": "MultiPolygon", "coordinates": [ [ [ [ -70.263838931951895, -37.348725839709509 ], [ -70.263580194422389, -37.348606972998155 ], [ -70.263285305589164, -37.349024569494368 ], [ -70.263809406866812, -37.349320795899885 ], [ -70.263815701217595, -37.349527951911256 ], [ -70.263514091361927, -37.349544688784917 ], [ -70.263569774506337, -37.351688403901008 ], [ -70.263863232045964, -37.351689773345356 ], [ -70.26387229914603, -37.35172571527297 ], [ -70.263898216635241, -37.351756972287205 ], [ -70.263938088021163, -37.351779070477704 ], [ -70.264454604818951, -37.351958248635903 ], [ -70.265054520338182, -37.35223113440447 ], [ -70.265354907276873, -37.352309008478393 ], [ -70.265445784276366, -37.352344075021435 ], [ -70.265238064753078, -37.352576044630212 ], [ -70.265232649537907, -37.352589617110382 ], [ -70.265122076916981, -37.352725945404643 ], [ -70.2650230903607, -37.352880169079214 ], [ -70.264949114738442, -37.353011600930358 ], [ -70.264920048651476, -37.35312903789815 ], [ -70.264891360402942, -37.353268995068134 ], [ -70.264884711314807, -37.353377182583216 ], [ -70.264900328244195, -37.353467112572375 ], [ -70.264951309594778, -37.353646761341807 ], [ -70.265577553361794, -37.353302198263087 ], [ -70.265946753316399, -37.353109043453188 ], [ -70.26609420352483, -37.353152513645583 ], [ -70.266253392033647, -37.353222887081522 ], [ -70.266492780791808, -37.35336447913491 ], [ -70.266232077273941, -37.352961833984764 ], [ -70.26613976166314, -37.352841191308087 ], [ -70.266042106925553, -37.352738625106298 ], [ -70.265901834670359, -37.352618495559383 ], [ -70.265736173780937, -37.35249863754018 ], [ -70.26563622842373, -37.352427629457054 ], [ -70.265692875446049, -37.352440537833715 ], [ -70.265723906522965, -37.352440205761226 ], [ -70.265752040958475, -37.352435399828963 ], [ -70.265794129149967, -37.352421434856559 ], [ -70.265836066047655, -37.352398461787438 ], [ -70.265858180248685, -37.352371196008043 ], [ -70.26587465242747, -37.352343990609469 ], [ -70.265970642180775, -37.352347468072956 ], [ -70.266074867991392, -37.352337342745543 ], [ -70.266220954834552, -37.35229974008351 ], [ -70.266350115529605, -37.352262318466174 ], [ -70.266378249854782, -37.352257512386757 ], [ -70.266676443194271, -37.3522047659214 ], [ -70.266657404646764, -37.351407611261898 ], [ -70.266349183819329, -37.351199183661265 ], [ -70.266322887204709, -37.351145406991016 ], [ -70.266239868872319, -37.351074218165294 ], [ -70.26603129148657, -37.350918781136215 ], [ -70.265740226920627, -37.350723682818831 ], [ -70.265814425916744, -37.350605762617171 ], [ -70.2662594100983, -37.350893814908325 ], [ -70.266304847925284, -37.350911347857206 ], [ -70.266571833417572, -37.351016605590885 ], [ -70.267244794325009, -37.349928233006153 ], [ -70.267497445776357, -37.350020127703203 ], [ -70.26776495989867, -37.350156911063067 ], [ -70.268175112414866, -37.350386766403318 ], [ -70.268676750209707, -37.350687716645453 ], [ -70.269006527604176, -37.350332800589349 ], [ -70.269003100100349, -37.350296798558411 ], [ -70.268997003322212, -37.350269834866651 ], [ -70.268230900626449, -37.349845586104259 ], [ -70.267488661019428, -37.349497659048303 ], [ -70.267380709776575, -37.349453767290377 ], [ -70.267278779025759, -37.349432335187679 ], [ -70.267213974205021, -37.349437534358003 ], [ -70.26708519729408, -37.349497477044252 ], [ -70.266611004946114, -37.349317856997494 ], [ -70.266494591788714, -37.349274055038222 ], [ -70.265952020313676, -37.349054620800715 ], [ -70.266031632234913, -37.348923127952837 ], [ -70.265492036685743, -37.348712669415349 ], [ -70.265396353987441, -37.348727207653837 ], [ -70.265264529115598, -37.348773666413244 ], [ -70.26510761857061, -37.348838412755448 ], [ -70.264913658499111, -37.348881030844517 ], [ -70.264694083627731, -37.348910407941347 ], [ -70.264454082510483, -37.348899459313436 ], [ -70.264072433466154, -37.348853985256106 ], [ -70.263838931951895, -37.348725839709509 ] ] ] ] } },
{ "type": "Feature", "properties": { "fid": 855, "cod_indec": 580420210, "region": "Alto Neuquén", "departamen": "Chos Malal", "cod_depto": "042", "fraccion": "02", "radio": "10", "tipo": "Urbano", "fuente": "DPEyC-INDEC", "p02_tot": 704, "p02_mujer": 377, "p02_varon": 327, "area": 15.86, "dens_pobl": 44 }, "geometry": { "type": "MultiPolygon", "coordinates": [ [ [ [ -70.266409734492925, -37.373438945477751 ], [ -70.266003279347629, -37.373772150602001 ], [ -70.26549934349535, -37.374182979781089 ], [ -70.264586188293421, -37.374931541517114 ], [ -70.263678583133171, -37.375675532103124 ], [ -70.262782021115584, -37.376405883336467 ], [ -70.26370863812447, -37.377130272319988 ], [ -70.264635197317034, -37.377850149603006 ], [ -70.265528935814743, -37.377119814706688 ], [ -70.266442107342158, -37.376371245644236 ], [ -70.267380121808486, -37.377099988345229 ], [ -70.268163720974101, -37.377708749084768 ], [ -70.268312434654135, -37.377824279700341 ], [ -70.269222840210645, -37.377080223884853 ], [ -70.270122092118555, -37.376345290571138 ], [ -70.269201144391886, -37.375625396159677 ], [ -70.26825733612236, -37.374887720204732 ], [ -70.267336424031569, -37.374167810437108 ], [ -70.266409734492925, -37.373438945477751 ] ] ] ] } }
]
}