{
"type": "FeatureCollection",
"name": "mapaBarrios",
"crs": { "type": "name", "properties": { "name": "urn:ogc:def:crs:OGC:1.3:CRS84" } },
"features": [
{ "type": "Feature", "properties": { "ogc_fid": 208, "id": 208.0, "nombre": "CHACRAS NORTE", "observ": "Informacion Municipal", "localidad": "Chos Malal", "oficial": "No" }, "geometry": { "type": "MultiPolygon", "coordinates": [ [ [ [ -70.267690571816331, -37.352127481045031 ], [ -70.267321684119523, -37.352338657320701 ], [ -70.266881603385272, -37.353014594582532 ], [ -70.266846822556275, -37.353127588367528 ], [ -70.266872873146738, -37.353334532419112 ], [ -70.267105466059775, -37.353575302699433 ], [ -70.267481479913258, -37.353787506535582 ], [ -70.268291998498043, -37.354166234864721 ], [ -70.268800154237624, -37.354349988275061 ], [ -70.269262264907695, -37.354480175449808 ], [ -70.269661782166907, -37.354579498825018 ], [ -70.269924901743806, -37.354621722431652 ], [ -70.270600127814149, -37.35467303349661 ], [ -70.270662670401407, -37.354366032002076 ], [ -70.270808966937125, -37.353504034363077 ], [ -70.270952428368233, -37.352808746293412 ], [ -70.270981484904439, -37.352691308008396 ], [ -70.271011528687268, -37.352632422131485 ], [ -70.271047518239683, -37.352591491743539 ], [ -70.271103102882748, -37.352541341063038 ], [ -70.271803803445025, -37.35209683835766 ], [ -70.271873036155995, -37.352019511473245 ], [ -70.271897361018503, -37.351956182021731 ], [ -70.271913222902072, -37.351892943573546 ], [ -70.272122727802255, -37.350597798881161 ], [ -70.27236234360268, -37.349248271497551 ], [ -70.272527293955989, -37.34832300267896 ], [ -70.272583718577437, -37.348155716147467 ], [ -70.272646012725289, -37.348001880985599 ], [ -70.27309052057889, -37.347091622442271 ], [ -70.273141833937586, -37.346955924600209 ], [ -70.273176602696736, -37.346842929076217 ], [ -70.273356092668848, -37.346111210988219 ], [ -70.273449716281718, -37.345975057509428 ], [ -70.2735396058373, -37.345784885937469 ], [ -70.27375875369286, -37.344395031689253 ], [ -70.273761503658847, -37.344223817666453 ], [ -70.273748242580922, -37.344106834290564 ], [ -70.27368345398429, -37.343778677662115 ], [ -70.273511562873068, -37.343289499397578 ], [ -70.273722226767347, -37.342399774896805 ], [ -70.273855415319517, -37.342101020255562 ], [ -70.274126816962678, -37.341634097169816 ], [ -70.274376255454953, -37.341370128539324 ], [ -70.273445551250447, -37.341051297355456 ], [ -70.273296586683017, -37.341251114586868 ], [ -70.273093788020745, -37.34177135575505 ], [ -70.272837531900038, -37.342634540751114 ], [ -70.272772725731798, -37.342806422556599 ], [ -70.272692827757226, -37.342919903597021 ], [ -70.272533799383723, -37.343025226190314 ], [ -70.272267889793952, -37.343149717632407 ], [ -70.271552597561879, -37.344229564361804 ], [ -70.27117275785389, -37.34479224887226 ], [ -70.270888437992326, -37.345331381625357 ], [ -70.270778177802342, -37.345652410843321 ], [ -70.270743330010887, -37.345760901703187 ], [ -70.270727240542953, -37.345810627939834 ], [ -70.270689951409139, -37.345941669275525 ], [ -70.270640531960126, -37.346189967084825 ], [ -70.270427671985388, -37.347286932712322 ], [ -70.270052192913354, -37.3492821094775 ], [ -70.269933751187452, -37.349787924507986 ], [ -70.269863518474637, -37.349973377435269 ], [ -70.269711389027265, -37.350321884117122 ], [ -70.269527393509478, -37.350621179277567 ], [ -70.269314959565776, -37.350907264792347 ], [ -70.269101386570696, -37.351125789395404 ], [ -70.268896351050998, -37.351348726873695 ], [ -70.268637185243307, -37.351540710659918 ], [ -70.268386329467276, -37.351723595066971 ], [ -70.26810703530667, -37.351893269301897 ], [ -70.267690571816331, -37.352127481045031 ] ] ] ] } },
{ "type": "Feature", "properties": { "ogc_fid": 209, "id": 209.0, "nombre": "LAS VERTIENTES", "observ": "OFICIAL", "localidad": "Chos Malal", "oficial": "Si" }, "geometry": { "type": "MultiPolygon", "coordinates": [ [ [ [ -70.267690571816331, -37.352127481045031 ], [ -70.26751521579736, -37.352102331283476 ], [ -70.2673277429233, -37.352027757740103 ], [ -70.267187772887013, -37.351925645869343 ], [ -70.267127623598839, -37.351872232072793 ], [ -70.267064199149871, -37.351791824227028 ], [ -70.267011907336894, -37.351702287388946 ], [ -70.266970672436059, -37.351599117533439 ], [ -70.266955583418849, -37.351540716104111 ], [ -70.266923588632068, -37.351315816275125 ], [ -70.266899506934763, -37.351225977202226 ], [ -70.26687328561772, -37.351176704700215 ], [ -70.26684142242226, -37.351127492620499 ], [ -70.266812758692225, -37.351100770519658 ], [ -70.266784170674512, -37.351078552451888 ], [ -70.266738732637691, -37.351061019690825 ], [ -70.26661957141269, -37.35102175216916 ], [ -70.266652590326231, -37.350971845205336 ], [ -70.26726805210356, -37.349987699788393 ], [ -70.267306484812764, -37.349924220080297 ], [ -70.268037823026987, -37.35029478937269 ], [ -70.268698720724657, -37.350670614507685 ], [ -70.269009130600779, -37.350338430426675 ], [ -70.268964997045614, -37.350230787508281 ], [ -70.26825874013268, -37.349841935638466 ], [ -70.267499499311114, -37.349489686079515 ], [ -70.267258284642224, -37.349406678531516 ], [ -70.267141245645121, -37.349493524632045 ], [ -70.266618871030914, -37.349300906223185 ], [ -70.266522279772332, -37.349261396873885 ], [ -70.265965528256388, -37.349037609671903 ], [ -70.266078158552332, -37.348856209999546 ], [ -70.265592764696592, -37.348681210546808 ], [ -70.265499751706002, -37.348686710596176 ], [ -70.265342690345918, -37.348742449156937 ], [ -70.264703007897936, -37.348956513909044 ], [ -70.264627297538397, -37.348984352535105 ], [ -70.264550151619787, -37.348926614239033 ], [ -70.264464996478893, -37.348895990636557 ], [ -70.264075111380365, -37.34886411919404 ], [ -70.264045543229926, -37.348783347814425 ], [ -70.26367520583608, -37.348571071965438 ], [ -70.263609721987279, -37.348535732721039 ], [ -70.263281964223992, -37.349012243472785 ], [ -70.263809414879134, -37.349339968096139 ], [ -70.263803821551917, -37.349511212304243 ], [ -70.263724836362158, -37.349512056225372 ], [ -70.263504806173216, -37.349514406870583 ], [ -70.263521599270078, -37.351694576362533 ], [ -70.263560386061357, -37.351820297869729 ], [ -70.26363302487826, -37.35194565770113 ], [ -70.263727476785363, -37.352025735904462 ], [ -70.263810116287729, -37.352074406285269 ], [ -70.263883990818471, -37.352105150861156 ], [ -70.264119719765247, -37.35219723355344 ], [ -70.264285200590038, -37.352474765597599 ], [ -70.264522669075205, -37.352670440450005 ], [ -70.264879226465681, -37.352900880101458 ], [ -70.265008842440508, -37.35289048417426 ], [ -70.265415593485002, -37.352413123779492 ], [ -70.26550503387756, -37.35236261348075 ], [ -70.265809906820479, -37.352539545108463 ], [ -70.26605752866115, -37.352667535424629 ], [ -70.266255680698762, -37.352705957839838 ], [ -70.266505842989204, -37.352649221150102 ], [ -70.266806101821928, -37.352551403729656 ], [ -70.267321684119523, -37.352338657320701 ], [ -70.267690571816331, -37.352127481045031 ] ] ] ] } },
{ "type": "Feature", "properties": { "ogc_fid": 210, "id": 210.0, "nombre": "RUTA 40", "observ": "Informacion Municipal", "localidad": "Chos Malal", "oficial": "No" }, "geometry": { "type": "MultiPolygon", "coordinates": [ [ [ [ -70.25974113600472, -37.37028135766819 ], [ -70.259888305157759, -37.367775098049314 ], [ -70.260009853963197, -37.365593459042373 ], [ -70.260165112103522, -37.365596309600043 ], [ -70.260246860422882, -37.365590933640469 ], [ -70.260331128850538, -37.365567511392754 ], [ -70.260375444086421, -37.365517485831099 ], [ -70.260397337958963, -37.365476708902058 ], [ -70.260417565831077, -37.364998979868716 ], [ -70.260441100631226, -37.364381565374906 ], [ -70.260448845045815, -37.364169755141432 ], [ -70.260465087284956, -37.36379117507142 ], [ -70.260491669064493, -37.363187242514329 ], [ -70.260544019840708, -37.362605559464988 ], [ -70.260562588830609, -37.362028741265981 ], [ -70.260594887661199, -37.361429252435038 ], [ -70.260632979470159, -37.360838711486799 ], [ -70.260679836138252, -37.360266096435005 ], [ -70.260772417393312, -37.3590533054792 ], [ -70.260884956798009, -37.358696222719068 ], [ -70.261302951596932, -37.357538524437665 ], [ -70.261376636319397, -37.357389078581704 ], [ -70.26141973998115, -37.357266987939887 ], [ -70.261438357487691, -37.357199216635252 ], [ -70.261440198616882, -37.357140633958089 ], [ -70.261419696424156, -37.357095804132719 ], [ -70.261390956861433, -37.357064576705142 ], [ -70.261262571351224, -37.356980353757884 ], [ -70.26124252157058, -37.356962548171957 ], [ -70.261233756521619, -37.35694462224383 ], [ -70.261227586529188, -37.356913154093128 ], [ -70.261223408590325, -37.356832111353633 ], [ -70.261233562656784, -37.35676443032802 ], [ -70.261213060694757, -37.356719600459911 ], [ -70.261203391197327, -37.356647625976649 ], [ -70.261039301252538, -37.356284482807759 ], [ -70.261105878494362, -37.35621620017907 ], [ -70.26148940454101, -37.356203100418654 ], [ -70.261973664928931, -37.355296964305737 ], [ -70.262197589255649, -37.355357642727412 ], [ -70.262220082785376, -37.355352897826634 ], [ -70.262236858640875, -37.355343709091819 ], [ -70.262665663941704, -37.35449672499977 ], [ -70.262912306046545, -37.354566169258675 ], [ -70.262977266582482, -37.354569980452226 ], [ -70.263022102111591, -37.354551482270217 ], [ -70.263620885584885, -37.353914407423545 ], [ -70.263962740394931, -37.35360442478914 ], [ -70.263205716852127, -37.353553949340352 ], [ -70.263110404932505, -37.353591006064178 ], [ -70.262132795940332, -37.35401588865642 ], [ -70.26173499370654, -37.354186812516019 ], [ -70.261623206121527, -37.354251072915538 ], [ -70.261217056486629, -37.354597773285541 ], [ -70.26092991704374, -37.354974737504762 ], [ -70.260696828110738, -37.355378154008712 ], [ -70.260916107653046, -37.356173175001942 ], [ -70.260843285155602, -37.356205485301373 ], [ -70.260972422454543, -37.35633474921395 ], [ -70.261101150786331, -37.3566081725359 ], [ -70.261104951735021, -37.356666695054678 ], [ -70.260123937317559, -37.356722199825924 ], [ -70.259709450633366, -37.356740129793153 ], [ -70.259633730600186, -37.356767965363964 ], [ -70.259572191670443, -37.356800154711507 ], [ -70.259632121327911, -37.357515787621061 ], [ -70.259647483198293, -37.358772476984647 ], [ -70.259683716100298, -37.359420789282169 ], [ -70.259779462988362, -37.360253166335148 ], [ -70.259737821062004, -37.360294153524613 ], [ -70.259701338984243, -37.360812599584257 ], [ -70.259634951087023, -37.361398936823782 ], [ -70.259611108731036, -37.361998335387142 ], [ -70.259578651365359, -37.362588815952464 ], [ -70.259588249189818, -37.362994149872783 ], [ -70.25956579294693, -37.363170078029782 ], [ -70.259541644578761, -37.363413596884079 ], [ -70.259570390150216, -37.363782688059992 ], [ -70.259601767030134, -37.3639715573755 ], [ -70.258759208145918, -37.364043596134415 ], [ -70.258780576544737, -37.364309154571956 ], [ -70.259072315796999, -37.364373621650017 ], [ -70.25966756867021, -37.364362778031058 ], [ -70.259606098944531, -37.364399471512129 ], [ -70.259559981040894, -37.364679263074656 ], [ -70.259411651361916, -37.365090783625888 ], [ -70.259372942846966, -37.365307428368013 ], [ -70.259360380538098, -37.365568843107091 ], [ -70.259437615277989, -37.365631088432373 ], [ -70.259418641526068, -37.367703518403481 ], [ -70.259340691230904, -37.367767416314578 ], [ -70.259336102148879, -37.367830532978452 ], [ -70.259142562995549, -37.370265208313057 ], [ -70.259664875283988, -37.370277665178662 ], [ -70.25974113600472, -37.37028135766819 ] ] ] ] } },
{ "type": "Feature", "properties": { "ogc_fid": 211, "id": 211.0, "nombre": "URIBURU", "observ": "Informacion Municipal", "localidad": "Chos Malal", "oficial": "Si" }, "geometry": { "type": "MultiPolygon", "coordinates": [ [ [ [ -70.269702310472738, -37.364521253811589 ], [ -70.270291462894008, -37.364483393154991 ], [ -70.271165970911042, -37.364298307855485 ], [ -70.271638157958193, -37.364018436334007 ], [ -70.272351524261822, -37.363983734596012 ], [ -70.272327743145965, -37.363745233960174 ], [ -70.271859208728671, -37.361232067840653 ], [ -70.271682573601723, -37.360463639322333 ], [ -70.271504564980987, -37.359780817195379 ], [ -70.271330425265631, -37.359494379307449 ], [ -70.271124255211674, -37.35931640163696 ], [ -70.270923500753696, -37.359124850867637 ], [ -70.270836584525227, -37.358990639537467 ], [ -70.270795112289974, -37.35887395922785 ], [ -70.270690729142871, -37.357703821291729 ], [ -70.270590468439707, -37.357614801552664 ], [ -70.270583277620759, -37.356853560002449 ], [ -70.270481506703064, -37.355503199541744 ], [ -70.270471472809533, -37.355075346912862 ], [ -70.270559394246277, -37.354934752197458 ], [ -70.26967387366355, -37.354962281034148 ], [ -70.268836614227624, -37.35500730489656 ], [ -70.268813318448593, -37.354629147616819 ], [ -70.268468859170341, -37.35444814362976 ], [ -70.267931204724619, -37.35418812261225 ], [ -70.267734959978995, -37.354095624425184 ], [ -70.266787479945833, -37.353961621112788 ], [ -70.266649096477664, -37.353954093498793 ], [ -70.265385864887364, -37.354003653996081 ], [ -70.265104060669287, -37.354024688003122 ], [ -70.264468715727048, -37.354499986555325 ], [ -70.264400228679065, -37.354622349675324 ], [ -70.264359347905184, -37.354708378846652 ], [ -70.264376853490631, -37.354910909941452 ], [ -70.264458337914519, -37.355058698854393 ], [ -70.264607453775739, -37.355201259742806 ], [ -70.26459417951385, -37.355250955015158 ], [ -70.264900398678364, -37.355675641123931 ], [ -70.264994152300659, -37.355881861449255 ], [ -70.265294809668745, -37.356311110790891 ], [ -70.265579019976613, -37.356600885027746 ], [ -70.265511992744138, -37.35664214587112 ], [ -70.265780964563064, -37.356864509931206 ], [ -70.266324870886649, -37.35783173453067 ], [ -70.266328751660055, -37.357894760829922 ], [ -70.266822312016757, -37.357880465515215 ], [ -70.266935084673037, -37.357874752678342 ], [ -70.266985561450838, -37.3585274146118 ], [ -70.26700727895421, -37.358644307943692 ], [ -70.267432984906179, -37.359292949184187 ], [ -70.267763001919803, -37.359956129068834 ], [ -70.2677839633389, -37.360027981881061 ], [ -70.268344224302481, -37.361125661456455 ], [ -70.268882628653941, -37.362097436978821 ], [ -70.269304231618733, -37.363002890829314 ], [ -70.269696617787147, -37.364183451913 ], [ -70.269702310472738, -37.364521253811589 ] ] ] ] } },
{ "type": "Feature", "properties": { "ogc_fid": 212, "id": 212.0, "nombre": "CORDILLERA DEL VIENTO", "observ": "Informacion Municipal", "localidad": "Chos Malal", "oficial": "Si" }, "geometry": { "type": "MultiPolygon", "coordinates": [ [ [ [ -70.263919878057791, -37.365349017491887 ], [ -70.264342497167192, -37.365308461275781 ], [ -70.26477952566357, -37.365285768815724 ], [ -70.264586576523797, -37.364382358907044 ], [ -70.264577507386733, -37.36434641714235 ], [ -70.264504098547945, -37.364176018052326 ], [ -70.264154592525969, -37.363359873089394 ], [ -70.26394986377764, -37.363267459591682 ], [ -70.26394286095244, -37.363186447247578 ], [ -70.263872482004615, -37.362187124001458 ], [ -70.263868602958709, -37.362124097632581 ], [ -70.26385885454107, -37.362047619452937 ], [ -70.263767391953465, -37.361305297433027 ], [ -70.263757945923629, -37.361246835383064 ], [ -70.26375384042926, -37.36117029688365 ], [ -70.26369694227526, -37.360301469657621 ], [ -70.263693139050929, -37.36024294729777 ], [ -70.263694676303402, -37.360166348489983 ], [ -70.263719596635354, -37.359296646868636 ], [ -70.263721360462895, -37.359233560168313 ], [ -70.2637228976957, -37.359156961348305 ], [ -70.263765757805018, -37.35767440861872 ], [ -70.26346945573448, -37.357673069500905 ], [ -70.263359428721785, -37.357674244854842 ], [ -70.263383735023496, -37.357777596716673 ], [ -70.262937757448128, -37.357768845336508 ], [ -70.262220566590528, -37.357740462817667 ], [ -70.261994040174272, -37.357693326828787 ], [ -70.262052078701004, -37.357620629942311 ], [ -70.262180556572943, -37.357204812816164 ], [ -70.262151213203623, -37.357137553228995 ], [ -70.262099526699032, -37.357084046611327 ], [ -70.261912046400411, -37.357009464673254 ], [ -70.261657593667948, -37.357485188473333 ], [ -70.261675651933288, -37.357552568568174 ], [ -70.2616905120002, -37.357597458533029 ], [ -70.261727866326808, -37.357637603676928 ], [ -70.261870434944711, -37.357726179622169 ], [ -70.261445146788205, -37.358784850949256 ], [ -70.261400621805592, -37.35915922821939 ], [ -70.261349497309396, -37.360150839926028 ], [ -70.261289757048118, -37.361133533655071 ], [ -70.261244951769655, -37.36216562123991 ], [ -70.261168356215293, -37.363152999210108 ], [ -70.261111584563622, -37.364144670440986 ], [ -70.261052141080754, -37.365145379675027 ], [ -70.261043418301128, -37.365298637369243 ], [ -70.261777459055153, -37.365317836981973 ], [ -70.262497619009565, -37.365350694746382 ], [ -70.263089906095985, -37.365330855815863 ], [ -70.263425437079391, -37.365313757194663 ], [ -70.263528219350093, -37.365384736576416 ], [ -70.263919878057791, -37.365349017491887 ] ] ] ] } },
{ "type": "Feature", "properties": { "ogc_fid": 213, "id": 213.0, "nombre": "TIRO FEDERAL", "observ": "OFICIAL", "localidad": "Chos Malal", "oficial": "Si" }, "geometry": { "type": "MultiPolygon", "coordinates": [ [ [ [ -70.267899962987585, -37.374131389496554 ], [ -70.267316756259191, -37.374191699218109 ], [ -70.268248955881688, -37.374911488106115 ], [ -70.26918696886024, -37.375640216690456 ], [ -70.270085900555287, -37.374887267692301 ], [ -70.271010286623422, -37.37413854314854 ], [ -70.271892859955827, -37.373421794989049 ], [ -70.272806075277842, -37.372682186316133 ], [ -70.273733228982138, -37.371933410841514 ], [ -70.275030465892755, -37.370874309839905 ], [ -70.275009646754867, -37.370811466647396 ], [ -70.275040152441292, -37.370612925079129 ], [ -70.274827462117401, -37.3702187927842 ], [ -70.274490545342104, -37.369821494124643 ], [ -70.274042141096132, -37.369339803757256 ], [ -70.273796209618325, -37.36898206625424 ], [ -70.273539527100155, -37.368655977828247 ], [ -70.273302764774741, -37.36783864722215 ], [ -70.273271199505999, -37.367640774295019 ], [ -70.273197539370813, -37.367456869067965 ], [ -70.2731964736912, -37.367393812832056 ], [ -70.273153236903994, -37.367340220280056 ], [ -70.273083845058181, -37.367241860912465 ], [ -70.273074543165706, -37.367192407846176 ], [ -70.273113283740031, -37.367146942428427 ], [ -70.273105966140037, -37.367047914798846 ], [ -70.273107189302678, -37.366953300059983 ], [ -70.273083323063545, -37.366876974760174 ], [ -70.273031926484435, -37.366841489344743 ], [ -70.273035819061988, -37.366737836193501 ], [ -70.273088286539689, -37.366669698830556 ], [ -70.273111929731996, -37.366565833054914 ], [ -70.273146858958484, -37.366461845772683 ], [ -70.27319055711871, -37.366375783421852 ], [ -70.273191780188739, -37.366281168673787 ], [ -70.273168218556819, -37.366222859451518 ], [ -70.273161210754793, -37.365975168841587 ], [ -70.273185082001021, -37.365884815099491 ], [ -70.27320376689093, -37.365821546213532 ], [ -70.273220010837449, -37.365780827791646 ], [ -70.273186995372967, -37.365664057459313 ], [ -70.273220178643584, -37.365289798672478 ], [ -70.273158263657919, -37.365132795910739 ], [ -70.27319181689279, -37.365114415333721 ], [ -70.273222396408386, -37.365087057086576 ], [ -70.273216454239758, -37.364902422697448 ], [ -70.272105404943872, -37.364950417800152 ], [ -70.271848499239383, -37.364944171290233 ], [ -70.271699915445254, -37.365671048153601 ], [ -70.271620761519372, -37.365662889616345 ], [ -70.271307195473128, -37.365643736667771 ], [ -70.271112654433438, -37.365821516523297 ], [ -70.271103657994317, -37.365790079350205 ], [ -70.271072089564996, -37.365758884782117 ], [ -70.271051655182376, -37.365718560861765 ], [ -70.271014671764974, -37.365700938992688 ], [ -70.270888301851301, -37.365905014824548 ], [ -70.270721670395858, -37.366064474755021 ], [ -70.270640910046623, -37.366128410241991 ], [ -70.270484424338193, -37.366220188252548 ], [ -70.270256868623832, -37.366281195583298 ], [ -70.270141414093587, -37.366295950157934 ], [ -70.269859261981921, -37.366298980186123 ], [ -70.269788268468801, -37.366272713445937 ], [ -70.269734659579996, -37.366273289042731 ], [ -70.269172845232532, -37.366594658488346 ], [ -70.268898292672162, -37.366881409520943 ], [ -70.268561875957388, -37.367349017091641 ], [ -70.268576726862435, -37.367560585195086 ], [ -70.268443187405779, -37.367674638568104 ], [ -70.267836194756782, -37.368163165305006 ], [ -70.268685737435419, -37.368838789743393 ], [ -70.269217615686543, -37.369252032335325 ], [ -70.269120134510217, -37.369496339717578 ], [ -70.268930553401134, -37.369466840266668 ], [ -70.268816231665525, -37.369549153977232 ], [ -70.268763379033373, -37.36959476940585 ], [ -70.268041670779354, -37.370143090746268 ], [ -70.26797768221661, -37.3701978349076 ], [ -70.268201244575607, -37.370569339032151 ], [ -70.26823913977158, -37.370641010012079 ], [ -70.268296256007659, -37.370680940980158 ], [ -70.268808014222159, -37.371071876816487 ], [ -70.268631294054856, -37.371303519406467 ], [ -70.26859056136486, -37.37139855792492 ], [ -70.268560736174479, -37.371470955242913 ], [ -70.268616002659272, -37.371736147660016 ], [ -70.26876209618743, -37.37203189942592 ], [ -70.268898497306154, -37.372422356521021 ], [ -70.26892594178986, -37.372543692566921 ], [ -70.269029270365081, -37.372646194945858 ], [ -70.269137711507128, -37.372717108520163 ], [ -70.269065104556375, -37.37276293608457 ], [ -70.268969074556509, -37.372926140651757 ], [ -70.268464766280132, -37.37348114106765 ], [ -70.268432194258494, -37.373558072634829 ], [ -70.26838932102703, -37.37369367752774 ], [ -70.267899962987585, -37.374131389496554 ] ] ] ] } },
{ "type": "Feature", "properties": { "ogc_fid": 214, "id": 214.0, "nombre": "PARQUE LA HOYA", "observ": "OFICIAL", "localidad": "Chos Malal", "oficial": "Si" }, "geometry": { "type": "MultiPolygon", "coordinates": [ [ [ [ -70.261043418301128, -37.365298637369243 ], [ -70.261010477022566, -37.366871178819721 ], [ -70.260925162763371, -37.367169408089232 ], [ -70.260909934919226, -37.367439860980348 ], [ -70.260869926458355, -37.368084479932534 ], [ -70.260801528511323, -37.36922493399171 ], [ -70.260877228215335, -37.369363776958984 ], [ -70.261447440319387, -37.369709073451205 ], [ -70.262124247919772, -37.370183869861258 ], [ -70.262134025298636, -37.370093668719022 ], [ -70.263283540275765, -37.368968699212886 ], [ -70.263410691314732, -37.368809671466813 ], [ -70.263445030644107, -37.368669654559881 ], [ -70.263516054730104, -37.368024703587601 ], [ -70.263756192338548, -37.36804015699942 ], [ -70.263714496330394, -37.368414504304404 ], [ -70.264067575089612, -37.368433254965879 ], [ -70.264530772303658, -37.3684553319722 ], [ -70.264988326520566, -37.368477467523476 ], [ -70.265080531938324, -37.368422423110857 ], [ -70.264963932775956, -37.367865070265573 ], [ -70.26495723080528, -37.367802074194898 ], [ -70.264997739410589, -37.367693524730093 ], [ -70.264703208820379, -37.367295744119915 ], [ -70.264576135648312, -37.366954735124217 ], [ -70.264400619318195, -37.366753893981979 ], [ -70.264341316062968, -37.366583344059229 ], [ -70.264353382851951, -37.366461584340591 ], [ -70.264126904652954, -37.3659144147977 ], [ -70.263919878057791, -37.365349017491887 ], [ -70.263528219350093, -37.365384736576416 ], [ -70.263425437079391, -37.365313757194663 ], [ -70.263089906095985, -37.365330855815863 ], [ -70.262497619009565, -37.365350694746382 ], [ -70.261777459055153, -37.365317836981973 ], [ -70.261043418301128, -37.365298637369243 ] ] ] ] } },
{ "type": "Feature", "properties": { "ogc_fid": 215, "id": 215.0, "nombre": "JARDIN", "observ": "OFICIAL", "localidad": "Chos Malal", "oficial": "Si" }, "geometry": { "type": "MultiPolygon", "coordinates": [ [ [ [ -70.260801528511323, -37.36922493399171 ], [ -70.260724706792672, -37.370536661540498 ], [ -70.260662325863777, -37.37169957514935 ], [ -70.260696983393387, -37.371915437946285 ], [ -70.260488736603023, -37.374480910699766 ], [ -70.260579153596609, -37.374655635521833 ], [ -70.260711069451176, -37.374780364638795 ], [ -70.260772062417885, -37.374883325605666 ], [ -70.260909396491769, -37.374994482213445 ], [ -70.261830258954831, -37.375714442914507 ], [ -70.262287799399374, -37.37606994651582 ], [ -70.262756782835851, -37.376434335765602 ], [ -70.263678364525887, -37.375681193153106 ], [ -70.264569265562017, -37.374950895680257 ], [ -70.265482421201781, -37.374202334042252 ], [ -70.265991925200879, -37.373786940473281 ], [ -70.266384422984913, -37.373462894517971 ], [ -70.267316756259191, -37.374191699218109 ], [ -70.267899962987585, -37.374131389496554 ], [ -70.267965942602217, -37.374027070862809 ], [ -70.267951454415609, -37.374004702042313 ], [ -70.267721859941133, -37.37361073821549 ], [ -70.267674116803263, -37.373624764537205 ], [ -70.267594121029546, -37.373567059220598 ], [ -70.267436421096249, -37.373420090016275 ], [ -70.26715954293249, -37.373067175317381 ], [ -70.267029683797958, -37.372897383032814 ], [ -70.266869562186599, -37.372606284248555 ], [ -70.266699139523766, -37.372373858431551 ], [ -70.266672153141613, -37.372279545945453 ], [ -70.26658824066638, -37.371820951459888 ], [ -70.266615341319877, -37.371586409702154 ], [ -70.26617278504331, -37.371618178064466 ], [ -70.266137637288637, -37.37154197216892 ], [ -70.265492265842937, -37.370084808120033 ], [ -70.265468708851955, -37.370026497312182 ], [ -70.265445076235068, -37.369963682469937 ], [ -70.264966661225543, -37.368531757343824 ], [ -70.264988326520566, -37.368477467523476 ], [ -70.264530772303658, -37.3684553319722 ], [ -70.264067575089612, -37.368433254965879 ], [ -70.263714496330394, -37.368414504304404 ], [ -70.263756192338548, -37.36804015699942 ], [ -70.263516054730104, -37.368024703587601 ], [ -70.263445030644107, -37.368669654559881 ], [ -70.263410691314732, -37.368809671466813 ], [ -70.263283540275765, -37.368968699212886 ], [ -70.262134025298636, -37.370093668719022 ], [ -70.262124247919772, -37.370183869861258 ], [ -70.261447440319387, -37.369709073451205 ], [ -70.260877228215335, -37.369363776958984 ], [ -70.260801528511323, -37.36922493399171 ] ] ] ] } },
{ "type": "Feature", "properties": { "ogc_fid": 216, "id": 216.0, "nombre": "AREA CENTRO", "observ": "Informacion Municipal", "localidad": "Chos Malal", "oficial": "Si" }, "geometry": { "type": "MultiPolygon", "coordinates": [ [ [ [ -70.275030465892755, -37.370874309839905 ], [ -70.273733228982138, -37.371933410841514 ], [ -70.272806075277842, -37.372682186316133 ], [ -70.271892859955827, -37.373421794989049 ], [ -70.271010286623422, -37.37413854314854 ], [ -70.270085900555287, -37.374887267692301 ], [ -70.26918696886024, -37.375640216690456 ], [ -70.268282072002989, -37.37637520355014 ], [ -70.267360453306551, -37.377123877249097 ], [ -70.266455520805124, -37.37785885060628 ], [ -70.265539358390811, -37.378598442104476 ], [ -70.266285818452786, -37.379180583657693 ], [ -70.266863592872454, -37.379633887658422 ], [ -70.267384175365436, -37.380042753460259 ], [ -70.267821786440024, -37.380384934104946 ], [ -70.268316601407705, -37.380771547802645 ], [ -70.267397676795156, -37.381515687947456 ], [ -70.266490022514546, -37.38225970028352 ], [ -70.267419494400386, -37.382979523284256 ], [ -70.268335538251236, -37.382230909081962 ], [ -70.269243325388345, -37.381495890942723 ], [ -70.27014270459172, -37.380765461024289 ], [ -70.271069982586539, -37.380016705105305 ], [ -70.271999544988887, -37.380740996077577 ], [ -70.272901633932307, -37.380006011375627 ], [ -70.273812018901751, -37.379261920813882 ], [ -70.27471689442234, -37.378526892337945 ], [ -70.275632963770946, -37.377787231400362 ], [ -70.276551531655116, -37.377029517130076 ], [ -70.277447582372929, -37.376276543855099 ], [ -70.278363138840916, -37.375509838482266 ], [ -70.277456692140916, -37.374816881009998 ], [ -70.27653889854038, -37.374119534040425 ], [ -70.277340502848105, -37.373457677606979 ], [ -70.276436454368294, -37.372737656925068 ], [ -70.276333346898156, -37.372815351958202 ], [ -70.275674271785718, -37.371894468346206 ], [ -70.275543252454526, -37.371990483123277 ], [ -70.275030465892755, -37.370874309839905 ] ] ] ] } },
{ "type": "Feature", "properties": { "ogc_fid": 217, "id": 217.0, "nombre": "AGUA ESCONDIDA", "observ": "Informacion Municipal", "localidad": "Chos Malal", "oficial": "No" }, "geometry": { "type": "MultiPolygon", "coordinates": [ [ [ [ -70.255495584622707, -37.375471035551087 ], [ -70.256217159497467, -37.37541381901201 ], [ -70.256476095937103, -37.375370524421136 ], [ -70.256617941220384, -37.37541406554147 ], [ -70.256897532538943, -37.375424608591267 ], [ -70.257046791321415, -37.375405002663101 ], [ -70.257336843013718, -37.375365880258968 ], [ -70.257441477968683, -37.375378282165855 ], [ -70.257542614228015, -37.375350177646489 ], [ -70.257653909716225, -37.375254392426008 ], [ -70.257767876350798, -37.375149569014333 ], [ -70.25790227274048, -37.375085071713897 ], [ -70.258025908089991, -37.375052222609227 ], [ -70.258141604430961, -37.375050991708179 ], [ -70.258234575378438, -37.375040992826591 ], [ -70.258425859883545, -37.375002918638124 ], [ -70.258501523261415, -37.374970579544012 ], [ -70.258872879282535, -37.374899054207191 ], [ -70.259476530282669, -37.374879111850824 ], [ -70.259624170632534, -37.374931597312667 ], [ -70.260033984096737, -37.37513445373289 ], [ -70.259801667083494, -37.374069282525788 ], [ -70.259545402913631, -37.373765683377528 ], [ -70.259318678924402, -37.373709535169354 ], [ -70.259040822314233, -37.373464727729619 ], [ -70.258959929739476, -37.373352968000617 ], [ -70.25881706980968, -37.373079693678378 ], [ -70.258807021642724, -37.372647336091589 ], [ -70.259007213928896, -37.372298332263895 ], [ -70.258745616724468, -37.372012807361365 ], [ -70.258452944940515, -37.371894291626397 ], [ -70.257725687102067, -37.3719470771779 ], [ -70.257448063611932, -37.372053640906678 ], [ -70.257043460358034, -37.372161553847754 ], [ -70.256967006755531, -37.372315531095246 ], [ -70.257124759456801, -37.372467018747983 ], [ -70.257247183015863, -37.372699968915981 ], [ -70.257112564722618, -37.372750953307282 ], [ -70.25691014838786, -37.372798153345222 ], [ -70.256689632580716, -37.37294465186374 ], [ -70.255454126187388, -37.375354349909543 ], [ -70.255495584622707, -37.375471035551087 ] ] ] ] } },
{ "type": "Feature", "properties": { "ogc_fid": 218, "id": 218.0, "nombre": "ÁREA DE FRONTERA", "observ": "Informacion Municipal", "localidad": "Chos Malal", "oficial": "Si" }, "geometry": { "type": "MultiPolygon", "coordinates": [ [ [ [ -70.267316756259191, -37.374191699218109 ], [ -70.266384422984913, -37.373462894517971 ], [ -70.265991925200879, -37.373786940473281 ], [ -70.265482421201781, -37.374202334042252 ], [ -70.264569265562017, -37.374950895680257 ], [ -70.263678364525887, -37.375681193153106 ], [ -70.262756782835851, -37.376434335765602 ], [ -70.263686221934535, -37.377158694813737 ], [ -70.264624220424849, -37.377887459624013 ], [ -70.265539358390811, -37.378598442104476 ], [ -70.266455520805124, -37.37785885060628 ], [ -70.267360453306551, -37.377123877249097 ], [ -70.268282072002989, -37.37637520355014 ], [ -70.26918696886024, -37.375640216690456 ], [ -70.268248955881688, -37.374911488106115 ], [ -70.267316756259191, -37.374191699218109 ] ] ] ] } },
{ "type": "Feature", "properties": { "ogc_fid": 219, "id": 219.0, "nombre": "LAS FLORES", "observ": "Informacion Municipal", "localidad": "Chos Malal", "oficial": "Si" }, "geometry": { "type": "MultiPolygon", "coordinates": [ [ [ [ -70.278363138840916, -37.375509838482266 ], [ -70.277447582372929, -37.376276543855099 ], [ -70.276551531655116, -37.377029517130076 ], [ -70.275632963770946, -37.377787231400362 ], [ -70.27471689442234, -37.378526892337945 ], [ -70.273812018901751, -37.379261920813882 ], [ -70.272901633932307, -37.380006011375627 ], [ -70.271999544988887, -37.380740996077577 ], [ -70.272917760780544, -37.381460896838647 ], [ -70.273046429935604, -37.381558617796031 ], [ -70.273298125053671, -37.381754120046729 ], [ -70.273916003904105, -37.382238490810579 ], [ -70.274771254108458, -37.382904997183623 ], [ -70.275673340692023, -37.382169991616848 ], [ -70.276583799551474, -37.381430384001234 ], [ -70.277460757962231, -37.380713655475255 ], [ -70.277812456407858, -37.380980144826367 ], [ -70.279608515363691, -37.382361721932476 ], [ -70.279682732321788, -37.382410471788411 ], [ -70.279739557364962, -37.382432380896311 ], [ -70.279596581688608, -37.380496854260343 ], [ -70.279187205564398, -37.379992238515094 ], [ -70.279066997431514, -37.379894432736286 ], [ -70.278934269224635, -37.379558006533365 ], [ -70.278859588467398, -37.379315553698959 ], [ -70.278707559440917, -37.378839686346268 ], [ -70.278654767674794, -37.37855645320434 ], [ -70.278887223768777, -37.378283649781061 ], [ -70.278900970448689, -37.377098731797034 ], [ -70.278804856534677, -37.376757404424403 ], [ -70.278363138840916, -37.375509838482266 ] ] ] ] } },
{ "type": "Feature", "properties": { "ogc_fid": 220, "id": 220.0, "nombre": "ALTOS DEL SOL", "observ": "Informacion Municipal", "localidad": "Chos Malal", "oficial": "Si" }, "geometry": { "type": "MultiPolygon", "coordinates": [ [ [ [ -70.264624220424849, -37.377887459624013 ], [ -70.263686221934535, -37.377158694813737 ], [ -70.262756782835851, -37.376434335765602 ], [ -70.262472798814912, -37.376667114584386 ], [ -70.262227791582959, -37.376867942839802 ], [ -70.263101169872769, -37.377615429004933 ], [ -70.263276331168129, -37.377793751182509 ], [ -70.263466585498605, -37.378030474653862 ], [ -70.263929187909923, -37.37885442009641 ], [ -70.264010069196672, -37.379132855134372 ], [ -70.26413668389867, -37.379613518616218 ], [ -70.264115017354115, -37.380172349353003 ], [ -70.264036480142437, -37.38053808026519 ], [ -70.263953532455474, -37.380809256805904 ], [ -70.263829311336295, -37.381143942060746 ], [ -70.263648496042492, -37.381470222337704 ], [ -70.263394908969289, -37.38183331854151 ], [ -70.263147821311108, -37.382079219179637 ], [ -70.262240070343722, -37.382652016666448 ], [ -70.261711364845624, -37.382936958900792 ], [ -70.262532122842572, -37.383572388778845 ], [ -70.262707626531181, -37.383602048505246 ], [ -70.263230766939571, -37.382817125205158 ], [ -70.263876356884381, -37.382265141961774 ], [ -70.263881320703945, -37.382224545435228 ], [ -70.26375540851916, -37.382122280131654 ], [ -70.263833898695509, -37.382089907411576 ], [ -70.26393703180274, -37.382012222926633 ], [ -70.264566887435677, -37.381532481401322 ], [ -70.264629753233123, -37.381410178649027 ], [ -70.264750241266754, -37.381021474556071 ], [ -70.264881153850439, -37.38024524336749 ], [ -70.264953308574093, -37.379667853121497 ], [ -70.264908753828792, -37.379199827269787 ], [ -70.264836183853006, -37.378912294309899 ], [ -70.264718084425567, -37.378602724098215 ], [ -70.264566802990629, -37.378334052098488 ], [ -70.264384783498286, -37.37808372789199 ], [ -70.264624220424849, -37.377887459624013 ] ] ] ] } },
{ "type": "Feature", "properties": { "ogc_fid": 221, "id": 221.0, "nombre": "IV DIVISIÓN", "observ": "Informacion Municipal", "localidad": "Chos Malal", "oficial": "Si" }, "geometry": { "type": "MultiPolygon", "coordinates": [ [ [ [ -70.264624220424849, -37.377887459624013 ], [ -70.264384783498286, -37.37808372789199 ], [ -70.264566802990629, -37.378334052098488 ], [ -70.264718084425567, -37.378602724098215 ], [ -70.264836183853006, -37.378912294309899 ], [ -70.264908753828792, -37.379199827269787 ], [ -70.264953308574093, -37.379667853121497 ], [ -70.264881153850439, -37.38024524336749 ], [ -70.264750241266754, -37.381021474556071 ], [ -70.265019549389521, -37.381090670997388 ], [ -70.265557367784382, -37.3815173796702 ], [ -70.265997801625332, -37.381859536772879 ], [ -70.266490022514546, -37.38225970028352 ], [ -70.267397676795156, -37.381515687947456 ], [ -70.268316601407705, -37.380771547802645 ], [ -70.267821786440024, -37.380384934104946 ], [ -70.267384175365436, -37.380042753460259 ], [ -70.266863592872454, -37.379633887658422 ], [ -70.266285818452786, -37.379180583657693 ], [ -70.265539358390811, -37.378598442104476 ], [ -70.264624220424849, -37.377887459624013 ] ] ] ] } },
{ "type": "Feature", "properties": { "ogc_fid": 222, "id": 222.0, "nombre": "DON BOSCO", "observ": "Informacion Municipal", "localidad": "Chos Malal", "oficial": "Si" }, "geometry": { "type": "MultiPolygon", "coordinates": [ [ [ [ -70.271999544988887, -37.380740996077577 ], [ -70.271069982586539, -37.380016705105305 ], [ -70.27014270459172, -37.380765461024289 ], [ -70.269243325388345, -37.381495890942723 ], [ -70.268335538251236, -37.382230909081962 ], [ -70.267419494400386, -37.382979523284256 ], [ -70.266503356576351, -37.383723626615556 ], [ -70.265601311681507, -37.384467572051221 ], [ -70.264718701972157, -37.385193283459301 ], [ -70.264579405911462, -37.385302889175357 ], [ -70.265550778070448, -37.385995249276341 ], [ -70.266545428338517, -37.38672789525917 ], [ -70.267769675785061, -37.387683312271896 ], [ -70.268372699079947, -37.388122822501806 ], [ -70.268489643581717, -37.388026966636396 ], [ -70.269375070864399, -37.387301197173471 ], [ -70.270241105098208, -37.386598153585425 ], [ -70.271123752498383, -37.385876905802498 ], [ -70.272020418022009, -37.385150995844548 ], [ -70.272953145601704, -37.384388652307862 ], [ -70.273855420105448, -37.38366266814257 ], [ -70.274771254108458, -37.382904997183623 ], [ -70.273916003904105, -37.382238490810579 ], [ -70.273298125053671, -37.381754120046729 ], [ -70.273046429935604, -37.381558617796031 ], [ -70.272917760780544, -37.381460896838647 ], [ -70.271999544988887, -37.380740996077577 ] ] ] ] } },
{ "type": "Feature", "properties": { "ogc_fid": 223, "id": 223.0, "nombre": "CANALITO", "observ": "Informacion Municipal", "localidad": "Chos Malal", "oficial": "No" }, "geometry": { "type": "MultiPolygon", "coordinates": [ [ [ [ -70.274771254108458, -37.382904997183623 ], [ -70.273855420105448, -37.38366266814257 ], [ -70.272953145601704, -37.384388652307862 ], [ -70.272020418022009, -37.385150995844548 ], [ -70.271123752498383, -37.385876905802498 ], [ -70.270241105098208, -37.386598153585425 ], [ -70.269375070864399, -37.387301197173471 ], [ -70.268489643581717, -37.388026966636396 ], [ -70.268372699079947, -37.388122822501806 ], [ -70.271540856907961, -37.390516892538827 ], [ -70.271593714958385, -37.39063795421503 ], [ -70.272993916797688, -37.391807654301964 ], [ -70.274017107490181, -37.391215511703685 ], [ -70.274668941905617, -37.390699441570135 ], [ -70.274956829247969, -37.390362980930597 ], [ -70.276444051520059, -37.388504463406569 ], [ -70.276535814140232, -37.388422385973072 ], [ -70.27661674549465, -37.388367454334059 ], [ -70.277775179121363, -37.387764809501405 ], [ -70.278428717183431, -37.387352311212688 ], [ -70.279485824627272, -37.386768764556848 ], [ -70.279636237098657, -37.386650011497963 ], [ -70.279980378968361, -37.386303920225359 ], [ -70.280060999178119, -37.386230970336399 ], [ -70.281409046301405, -37.385328919145223 ], [ -70.28216458686407, -37.384775645464487 ], [ -70.28233733853952, -37.384643132291934 ], [ -70.282506653626299, -37.38447461758706 ], [ -70.282660859528477, -37.384247703888555 ], [ -70.282822226426546, -37.383944130358763 ], [ -70.28276349805931, -37.383976301242036 ], [ -70.282718420084151, -37.383981295093115 ], [ -70.282650457819955, -37.383968517893557 ], [ -70.282610333623126, -37.383932914585841 ], [ -70.28230458676002, -37.383548816220021 ], [ -70.282275904977482, -37.383522098342759 ], [ -70.282224569295934, -37.383491121302079 ], [ -70.282173463759335, -37.383473656204636 ], [ -70.282096958890605, -37.383456466494025 ], [ -70.28176302497279, -37.383406029038639 ], [ -70.281092949341328, -37.383341213775267 ], [ -70.280962747415515, -37.383320100277302 ], [ -70.28084940181391, -37.383294299219202 ], [ -70.280752835926464, -37.383259306657855 ], [ -70.280687390316615, -37.38322848177507 ], [ -70.28061607065338, -37.383184206010135 ], [ -70.280375487452289, -37.382979589605924 ], [ -70.280226362370399, -37.382841554827309 ], [ -70.280139937196111, -37.382738879630224 ], [ -70.280012777439325, -37.3825645681843 ], [ -70.279958008679444, -37.382497588727979 ], [ -70.279937947601766, -37.38247978659556 ], [ -70.279906598070582, -37.382462106651204 ], [ -70.279739557364962, -37.382432380896311 ], [ -70.279682732321788, -37.382410471788411 ], [ -70.279608515363691, -37.382361721932476 ], [ -70.277812456407858, -37.380980144826367 ], [ -70.277460757962231, -37.380713655475255 ], [ -70.276583799551474, -37.381430384001234 ], [ -70.275673340692023, -37.382169991616848 ], [ -70.274771254108458, -37.382904997183623 ] ] ] ] } },
{ "type": "Feature", "properties": { "ogc_fid": 224, "id": 224.0, "nombre": "CENTENARIO I", "observ": "Informacion Municipal", "localidad": "Chos Malal", "oficial": "Si" }, "geometry": { "type": "MultiPolygon", "coordinates": [ [ [ [ -70.266490022514546, -37.38225970028352 ], [ -70.265997801625332, -37.381859536772879 ], [ -70.265557367784382, -37.3815173796702 ], [ -70.265019549389521, -37.381090670997388 ], [ -70.264750241266754, -37.381021474556071 ], [ -70.264629753233123, -37.381410178649027 ], [ -70.264566887435677, -37.381532481401322 ], [ -70.26393703180274, -37.382012222926633 ], [ -70.263833898695509, -37.382089907411576 ], [ -70.26375540851916, -37.382122280131654 ], [ -70.263881320703945, -37.382224545435228 ], [ -70.263876356884381, -37.382265141961774 ], [ -70.263230766939571, -37.382817125205158 ], [ -70.262707626531181, -37.383602048505246 ], [ -70.262845055218605, -37.383717706382406 ], [ -70.263085341093387, -37.384075526160061 ], [ -70.263699975053314, -37.384537461032849 ], [ -70.26452938528135, -37.385181793796889 ], [ -70.264579405911462, -37.385302889175357 ], [ -70.264718701972157, -37.385193283459301 ], [ -70.265601311681507, -37.384467572051221 ], [ -70.266503356576351, -37.383723626615556 ], [ -70.267419494400386, -37.382979523284256 ], [ -70.266490022514546, -37.38225970028352 ] ] ] ] } },
{ "type": "Feature", "properties": { "ogc_fid": 225, "id": 225.0, "nombre": "CENTENARIO II", "observ": "Informacion Municipal", "localidad": "Chos Malal", "oficial": "Si" }, "geometry": { "type": "MultiPolygon", "coordinates": [ [ [ [ -70.261711364845624, -37.382936958900792 ], [ -70.260189262655928, -37.383570352589786 ], [ -70.259981853513807, -37.383658154702069 ], [ -70.259758038292333, -37.383777665060883 ], [ -70.259722857041638, -37.383868136493831 ], [ -70.259482785715988, -37.384028362999736 ], [ -70.260557957748688, -37.384854803944847 ], [ -70.261364239059944, -37.385467871843041 ], [ -70.262936346668951, -37.386635860019275 ], [ -70.263120124045372, -37.386485237603893 ], [ -70.263189698709212, -37.386425931576703 ], [ -70.263476236319917, -37.386175104539916 ], [ -70.264579405911462, -37.385302889175357 ], [ -70.26452938528135, -37.385181793796889 ], [ -70.263699975053314, -37.384537461032849 ], [ -70.263085341093387, -37.384075526160061 ], [ -70.262845055218605, -37.383717706382406 ], [ -70.262707626531181, -37.383602048505246 ], [ -70.262532122842572, -37.383572388778845 ], [ -70.261711364845624, -37.382936958900792 ] ] ] ] } },
{ "type": "Feature", "properties": { "ogc_fid": 226, "id": 226.0, "nombre": "CHACRA SUR", "observ": "Informacion Municipal", "localidad": "Chos Malal", "oficial": "No" }, "geometry": { "type": "MultiPolygon", "coordinates": [ [ [ [ -70.261364239059944, -37.385467871843041 ], [ -70.2588547510219, -37.387152393243149 ], [ -70.256642309539188, -37.38769848817622 ], [ -70.257362752769296, -37.388411601601824 ], [ -70.257368283446198, -37.388573716607716 ], [ -70.264624677562281, -37.394550808632914 ], [ -70.266447704072363, -37.393670874191201 ], [ -70.268002078155803, -37.3929334427961 ], [ -70.269995372787903, -37.39194351212911 ], [ -70.270196235244597, -37.391801704967129 ], [ -70.270619654971881, -37.392301695122022 ], [ -70.27104124665577, -37.39286026597442 ], [ -70.271834791121151, -37.393878830871799 ], [ -70.271948841179039, -37.3937784979558 ], [ -70.272012237368457, -37.393687719550535 ], [ -70.272066404538961, -37.393551992229497 ], [ -70.272125531444388, -37.393375668154896 ], [ -70.272385002464276, -37.392525970215075 ], [ -70.272632097469838, -37.392113372278168 ], [ -70.272837686240663, -37.391917451967132 ], [ -70.272993916797688, -37.391807654301964 ], [ -70.271593714958385, -37.39063795421503 ], [ -70.271540856907961, -37.390516892538827 ], [ -70.268372699079947, -37.388122822501806 ], [ -70.267769675785061, -37.387683312271896 ], [ -70.266545428338517, -37.38672789525917 ], [ -70.265550778070448, -37.385995249276341 ], [ -70.264579405911462, -37.385302889175357 ], [ -70.263476236319917, -37.386175104539916 ], [ -70.263189698709212, -37.386425931576703 ], [ -70.263120124045372, -37.386485237603893 ], [ -70.262936346668951, -37.386635860019275 ], [ -70.261364239059944, -37.385467871843041 ] ] ] ] } }
]
}